{"type":"FeatureCollection","features":[{"type":"Feature","properties":{"band":900},"geometry":{"type":"MultiPolygon","coordinates":[[[[80.24955,13.04687],[80.24835,13.04597],[80.24749,13.04687],[80.24835,13.04792],[80.24955,13.04687]]],[[[80.28266,13.05767],[80.28155,13.05656],[80.28012,13.05767],[80.28155,13.05873],[80.28266,13.05767]]],[[[80.25949,13.07207],[80.25942,13.07197],[80.25935,13.07207],[80.25942,13.07213],[80.25949,13.07207]]],[[[80.2925,13.10266],[80.29077,13.10095],[80.28907,13.10266],[80.29077,13.10426],[80.2925,13.10266]]],[[[80.269,13.11166],[80.2704,13.10986],[80.27048,13.10963],[80.27233,13.10854],[80.27312,13.10806],[80.27417,13.1072],[80.27602,13.10689],[80.27721,13.10626],[80.27786,13.10513],[80.27815,13.10446],[80.2787,13.10266],[80.27888,13.10086],[80.27971,13.09964],[80.28,13.09906],[80.28025,13.09726],[80.28067,13.09546],[80.28097,13.09366],[80.28132,13.09186],[80.28155,13.09156],[80.28252,13.09186],[80.28339,13.09207],[80.28494,13.09186],[80.28524,13.09182],[80.28708,13.09174],[80.28719,13.09186],[80.28843,13.09366],[80.28893,13.09523],[80.28898,13.09546],[80.2904,13.09726],[80.29077,13.09771],[80.29148,13.09906],[80.29089,13.10086],[80.29262,13.10251],[80.29293,13.10266],[80.29446,13.10319],[80.29539,13.10266],[80.2963,13.10177],[80.29685,13.10086],[80.29668,13.09906],[80.2963,13.09854],[80.29499,13.09726],[80.29549,13.09546],[80.29551,13.09366],[80.29479,13.09186],[80.29488,13.09006],[80.29446,13.08909],[80.29395,13.08826],[80.29262,13.08727],[80.29077,13.08691],[80.28893,13.08656],[80.28885,13.08647],[80.28852,13.08467],[80.28893,13.08394],[80.2898,13.08287],[80.28893,13.08148],[80.28805,13.08107],[80.28708,13.08067],[80.28612,13.07927],[80.28534,13.07747],[80.28708,13.07605],[80.28751,13.07567],[80.2877,13.07387],[80.28708,13.07321],[80.28524,13.07207],[80.28444,13.07387],[80.28339,13.07468],[80.28277,13.07387],[80.28155,13.07235],[80.28131,13.07207],[80.27971,13.07034],[80.27962,13.07027],[80.2785,13.06847],[80.27947,13.06667],[80.27971,13.06648],[80.28101,13.06487],[80.28089,13.06307],[80.2803,13.06127],[80.27971,13.06013],[80.27933,13.05947],[80.27931,13.05767],[80.27786,13.05656],[80.27622,13.05767],[80.27619,13.05947],[80.27602,13.05972],[80.27499,13.05947],[80.27417,13.05923],[80.27408,13.05947],[80.27374,13.06127],[80.27417,13.06276],[80.2745,13.06307],[80.27417,13.06314],[80.27233,13.0632],[80.27176,13.06307],[80.27048,13.06273],[80.26864,13.06152],[80.26817,13.06127],[80.26743,13.05947],[80.2668,13.05772],[80.26677,13.05767],[80.26521,13.05587],[80.2654,13.05407],[80.26495,13.05332],[80.26364,13.05407],[80.26474,13.05587],[80.26344,13.05767],[80.26345,13.05947],[80.26311,13.06111],[80.26283,13.05947],[80.26243,13.05767],[80.26126,13.05709],[80.25942,13.05593],[80.25938,13.05587],[80.25757,13.05424],[80.25573,13.05452],[80.25547,13.05407],[80.25396,13.05227],[80.25389,13.05222],[80.25204,13.05223],[80.25197,13.05227],[80.25136,13.05407],[80.25204,13.05496],[80.25361,13.05587],[80.25389,13.05602],[80.25524,13.05767],[80.25573,13.05849],[80.25671,13.05947],[80.25757,13.06086],[80.25782,13.06127],[80.25942,13.06279],[80.25959,13.06307],[80.25942,13.06358],[80.25852,13.06487],[80.25942,13.06531],[80.26126,13.06522],[80.26294,13.06667],[80.26311,13.06687],[80.26495,13.0683],[80.26528,13.06847],[80.2668,13.06975],[80.26725,13.07027],[80.26864,13.07154],[80.26904,13.07207],[80.26864,13.07253],[80.2668,13.07371],[80.26603,13.07387],[80.26495,13.07407],[80.26311,13.0742],[80.26126,13.07507],[80.25942,13.07548],[80.2588,13.07567],[80.25757,13.07601],[80.25573,13.07625],[80.25456,13.07567],[80.25389,13.07543],[80.25255,13.07567],[80.25204,13.07578],[80.2502,13.07591],[80.24835,13.07639],[80.24651,13.07649],[80.24466,13.07627],[80.24368,13.07567],[80.24282,13.0754],[80.24223,13.07567],[80.24098,13.07698],[80.23919,13.07567],[80.23913,13.07564],[80.23729,13.07484],[80.23544,13.07521],[80.2336,13.07561],[80.23356,13.07567],[80.2336,13.07574],[80.23544,13.07626],[80.23645,13.07747],[80.23729,13.07805],[80.23913,13.07754],[80.24098,13.0781],[80.24176,13.07927],[80.24282,13.0798],[80.24436,13.07927],[80.24466,13.079],[80.24505,13.07927],[80.24651,13.07968],[80.24835,13.08095],[80.2487,13.08107],[80.2502,13.08139],[80.25204,13.08167],[80.25389,13.08203],[80.25573,13.08129],[80.25757,13.08278],[80.25784,13.08287],[80.25942,13.08337],[80.26118,13.08467],[80.26032,13.08647],[80.26126,13.08729],[80.26229,13.08647],[80.26311,13.08553],[80.26492,13.08647],[80.26415,13.08826],[80.26311,13.08969],[80.26297,13.09006],[80.26311,13.09043],[80.2642,13.09186],[80.26495,13.09238],[80.26591,13.09366],[80.2668,13.09527],[80.26707,13.09546],[80.26692,13.09726],[80.2668,13.09753],[80.2655,13.09906],[80.2668,13.09941],[80.26864,13.10031],[80.26904,13.10086],[80.26864,13.10145],[80.26789,13.10266],[80.26721,13.10446],[80.2668,13.10518],[80.26523,13.10626],[80.26495,13.10644],[80.26388,13.10806],[80.26389,13.10986],[80.26495,13.11143],[80.26532,13.11166],[80.2668,13.11345],[80.26864,13.1119],[80.269,13.11166]]],[[[80.26713,13.11526],[80.2668,13.11347],[80.26678,13.11346],[80.26495,13.11219],[80.2639,13.11346],[80.26311,13.11415],[80.26263,13.11526],[80.26311,13.11572],[80.26495,13.11611],[80.2668,13.11567],[80.26713,13.11526]]],[[[80.26685,13.12246],[80.2668,13.12239],[80.26495,13.1221],[80.26466,13.12246],[80.26495,13.12302],[80.2668,13.12257],[80.26685,13.12246]]]]}},{"type":"Feature","properties":{"band":1800},"geometry":{"type":"MultiPolygon","coordinates":[[[[80.21734,12.99648],[80.217,12.9962],[80.21632,12.99648],[80.217,12.99806],[80.21734,12.99648]]],[[[80.22203,13.00548],[80.22104,13.00368],[80.22069,13.00348],[80.2201,13.00368],[80.21884,13.00519],[80.21876,13.00548],[80.21884,13.00562],[80.22069,13.00673],[80.22203,13.00548]]],[[[80.24191,13.00908],[80.24258,13.00728],[80.24098,13.0055],[80.23913,13.00583],[80.23739,13.00728],[80.2387,13.00908],[80.23913,13.00945],[80.24098,13.00973],[80.24191,13.00908]]],[[[80.26088,13.00908],[80.26126,13.00843],[80.26244,13.00728],[80.26126,13.00663],[80.25942,13.00705],[80.25757,13.00674],[80.25721,13.00728],[80.25757,13.00908],[80.25757,13.00909],[80.25942,13.01042],[80.26088,13.00908]]],[[[80.23409,13.01088],[80.23544,13.01014],[80.23616,13.00908],[80.23712,13.00728],[80.23544,13.00643],[80.2336,13.00553],[80.23175,13.00617],[80.23085,13.00728],[80.23076,13.00908],[80.23175,13.01042],[80.23296,13.01088],[80.2336,13.01105],[80.23409,13.01088]]],[[[80.24241,13.01808],[80.24172,13.01628],[80.24098,13.01587],[80.2401,13.01628],[80.23934,13.01808],[80.24098,13.01986],[80.24241,13.01808]]],[[[80.20969,13.04327],[80.20962,13.04321],[80.20935,13.04327],[80.20962,13.0441],[80.20969,13.04327]]],[[[80.21258,13.05767],[80.21147,13.05684],[80.2106,13.05767],[80.21147,13.05881],[80.21258,13.05767]]],[[[80.17626,13.06667],[80.17458,13.06611],[80.17414,13.06667],[80.17458,13.06736],[80.17626,13.06667]]],[[[80.19858,13.06667],[80.19856,13.06663],[80.19854,13.06667],[80.19856,13.0667],[80.19858,13.06667]]],[[[80.17308,13.08826],[80.17274,13.08784],[80.17089,13.08824],[80.17087,13.08826],[80.17089,13.08831],[80.17274,13.08888],[80.17308,13.08826]]],[[[80.17971,13.08826],[80.17827,13.08656],[80.17643,13.08803],[80.17631,13.08826],[80.17643,13.08847],[80.17827,13.0898],[80.17971,13.08826]]],[[[80.19045,13.09006],[80.19118,13.08954],[80.19192,13.08826],[80.19171,13.08647],[80.19118,13.08592],[80.18934,13.085],[80.18749,13.08557],[80.18634,13.08647],[80.18565,13.08812],[80.18492,13.08647],[80.1838,13.0858],[80.18196,13.08633],[80.18177,13.08647],[80.18075,13.08826],[80.18196,13.08951],[80.18339,13.09006],[80.1838,13.09016],[80.184,13.09006],[80.18565,13.08834],[80.18749,13.08997],[80.1877,13.09006],[80.18934,13.0905],[80.19045,13.09006]]],[[[80.19758,13.09906],[80.19671,13.09769],[80.19611,13.09906],[80.19671,13.09957],[80.19758,13.09906]]],[[[80.18965,13.10086],[80.18934,13.10064],[80.18913,13.10086],[80.18934,13.10108],[80.18965,13.10086]]],[[[80.23064,13.10086],[80.23137,13.09906],[80.22991,13.09795],[80.22828,13.09906],[80.22908,13.10086],[80.22991,13.10125],[80.23064,13.10086]]],[[[80.28381,13.13866],[80.28339,13.13795],[80.28155,13.13688],[80.28043,13.13866],[80.28155,13.14029],[80.28339,13.13953],[80.28381,13.13866]]],[[[80.28435,13.14405],[80.28339,13.14283],[80.28243,13.14405],[80.28339,13.14507],[80.28435,13.14405]]],[[[80.22078,13.14585],[80.2207,13.14405],[80.22069,13.14404],[80.21884,13.14346],[80.21808,13.14405],[80.21793,13.14585],[80.21884,13.14661],[80.22069,13.14597],[80.22078,13.14585]]],[[[80.29644,13.14585],[80.29815,13.14539],[80.29919,13.14405],[80.29999,13.14343],[80.30166,13.14225],[80.30184,13.14199],[80.30252,13.14045],[80.30238,13.13866],[80.30184,13.13771],[80.30105,13.13686],[80.30054,13.13506],[80.30049,13.13326],[80.30087,13.13146],[80.30044,13.12966],[80.29999,13.12899],[80.29879,13.12786],[80.29923,13.12606],[80.29945,13.12426],[80.29956,13.12246],[80.29976,13.12066],[80.29992,13.11886],[80.2998,13.11706],[80.29991,13.11526],[80.29955,13.11346],[80.2995,13.11166],[80.29996,13.10986],[80.29999,13.10982],[80.30184,13.10826],[80.30204,13.10806],[80.30356,13.10626],[80.30368,13.10607],[80.30454,13.10446],[80.30514,13.10266],[80.30541,13.10086],[80.30537,13.09906],[80.30502,13.09726],[80.30434,13.09546],[80.30409,13.09366],[80.30381,13.09186],[80.30368,13.09128],[80.30342,13.09006],[80.30317,13.08826],[80.30263,13.08647],[80.30184,13.08482],[80.30176,13.08467],[80.30044,13.08287],[80.29999,13.08239],[80.29872,13.08107],[80.29815,13.07932],[80.29814,13.07927],[80.29725,13.07747],[80.29638,13.07567],[80.29641,13.07387],[80.2963,13.07326],[80.29609,13.07207],[80.29539,13.07027],[80.29446,13.06878],[80.29423,13.06847],[80.29318,13.06667],[80.293,13.06487],[80.29262,13.06362],[80.29243,13.06307],[80.29184,13.06127],[80.29161,13.05947],[80.29116,13.05767],[80.29099,13.05587],[80.29077,13.05512],[80.29044,13.05407],[80.28943,13.05227],[80.28893,13.05165],[80.28773,13.05047],[80.28708,13.04933],[80.28682,13.04867],[80.28591,13.04687],[80.28581,13.04507],[80.28524,13.04335],[80.28521,13.04327],[80.28362,13.04147],[80.28401,13.03967],[80.28419,13.03787],[80.2837,13.03607],[80.28339,13.03549],[80.28275,13.03427],[80.283,13.03248],[80.28203,13.03068],[80.28155,13.03013],[80.28054,13.02888],[80.27971,13.02797],[80.27849,13.02708],[80.27851,13.02528],[80.27786,13.02358],[80.27779,13.02348],[80.2776,13.02168],[80.27602,13.02102],[80.2751,13.02168],[80.27417,13.02244],[80.27273,13.02348],[80.27233,13.02405],[80.27151,13.02528],[80.27067,13.02708],[80.27233,13.0276],[80.27338,13.02888],[80.27233,13.02974],[80.27125,13.02888],[80.27048,13.02719],[80.27045,13.02708],[80.26977,13.02528],[80.26864,13.02357],[80.26851,13.02348],[80.26864,13.02332],[80.27048,13.02326],[80.27232,13.02168],[80.27196,13.01988],[80.27048,13.0189],[80.26864,13.01949],[80.26771,13.01988],[80.2668,13.02046],[80.26638,13.01988],[80.26517,13.01808],[80.26495,13.01785],[80.26311,13.01688],[80.26244,13.01628],[80.26166,13.01448],[80.26126,13.01409],[80.25942,13.01347],[80.25757,13.01426],[80.25736,13.01448],[80.25669,13.01628],[80.25743,13.01808],[80.25757,13.01822],[80.25929,13.01988],[80.25942,13.0206],[80.25961,13.02168],[80.25942,13.02242],[80.25896,13.02348],[80.25757,13.0245],[80.25649,13.02528],[80.25573,13.0258],[80.25389,13.02567],[80.25272,13.02708],[80.25389,13.02871],[80.25573,13.02844],[80.25651,13.02888],[80.25757,13.02964],[80.25942,13.03065],[80.25954,13.03068],[80.26126,13.03136],[80.26183,13.03248],[80.26129,13.03427],[80.26126,13.0343],[80.26123,13.03427],[80.26031,13.03248],[80.25942,13.03076],[80.25757,13.03119],[80.25573,13.03105],[80.25533,13.03068],[80.25389,13.02907],[80.25204,13.02888],[80.25199,13.02888],[80.2502,13.02853],[80.24835,13.0281],[80.24685,13.02708],[80.24651,13.02677],[80.24466,13.02536],[80.24447,13.02528],[80.24362,13.02348],[80.24282,13.02227],[80.24141,13.02348],[80.24098,13.02377],[80.24056,13.02348],[80.23913,13.02269],[80.23729,13.02225],[80.23544,13.02233],[80.23433,13.02168],[80.2336,13.02113],[80.23175,13.01998],[80.23154,13.01988],[80.22991,13.01897],[80.22888,13.01808],[80.22854,13.01628],[80.22986,13.01448],[80.22983,13.01268],[80.22838,13.01088],[80.22807,13.01058],[80.22678,13.00908],[80.22622,13.00862],[80.22438,13.00852],[80.22253,13.00832],[80.22125,13.00908],[80.22069,13.01052],[80.22056,13.01088],[80.22046,13.01268],[80.22069,13.01291],[80.22253,13.01354],[80.2233,13.01448],[80.22438,13.01613],[80.2246,13.01628],[80.22438,13.01637],[80.22253,13.01721],[80.22176,13.01808],[80.22129,13.01988],[80.22119,13.02168],[80.22186,13.02348],[80.22253,13.02431],[80.22328,13.02528],[80.22253,13.02649],[80.22212,13.02708],[80.22108,13.02888],[80.22069,13.02957],[80.21884,13.03007],[80.217,13.03036],[80.21516,13.0298],[80.21358,13.03068],[80.21331,13.03195],[80.21295,13.03248],[80.21331,13.03254],[80.21516,13.03288],[80.21681,13.03248],[80.217,13.03219],[80.21708,13.03248],[80.2184,13.03427],[80.2174,13.03607],[80.21763,13.03787],[80.21811,13.03967],[80.21773,13.04147],[80.21812,13.04327],[80.217,13.04414],[80.21606,13.04507],[80.21548,13.04687],[80.21609,13.04867],[80.21656,13.05047],[80.21631,13.05227],[80.217,13.05407],[80.217,13.05407],[80.21851,13.05587],[80.21884,13.05616],[80.22069,13.05698],[80.22253,13.05696],[80.22395,13.05767],[80.22438,13.05791],[80.22622,13.05869],[80.22807,13.05872],[80.22991,13.05804],[80.23041,13.05767],[80.23175,13.05663],[80.2331,13.05767],[80.2336,13.05806],[80.23544,13.059],[80.23598,13.05947],[80.2356,13.06127],[80.23544,13.06134],[80.2336,13.0615],[80.23177,13.06307],[80.23175,13.06311],[80.22991,13.06396],[80.22807,13.06487],[80.22807,13.06488],[80.22622,13.06574],[80.22438,13.06622],[80.22274,13.06667],[80.22253,13.06673],[80.22069,13.06781],[80.21884,13.06691],[80.21863,13.06667],[80.21774,13.06487],[80.2179,13.06307],[80.21761,13.06127],[80.217,13.06056],[80.21516,13.05979],[80.21331,13.06051],[80.21265,13.06127],[80.21147,13.06293],[80.21115,13.06307],[80.20962,13.06383],[80.20823,13.06487],[80.20778,13.06508],[80.20593,13.06557],[80.20409,13.06568],[80.20266,13.06667],[80.20225,13.0671],[80.2004,13.06804],[80.19985,13.06847],[80.19856,13.06938],[80.19707,13.07027],[80.19671,13.07052],[80.19487,13.07068],[80.19317,13.07027],[80.19302,13.07023],[80.19241,13.07027],[80.19118,13.07034],[80.18934,13.07107],[80.18899,13.07027],[80.18749,13.06895],[80.18565,13.06889],[80.1838,13.06972],[80.18343,13.06847],[80.18196,13.06758],[80.18011,13.06823],[80.17989,13.06847],[80.1795,13.07027],[80.18011,13.07119],[80.18196,13.07196],[80.18304,13.07207],[80.1838,13.07222],[80.18518,13.07387],[80.18565,13.07414],[80.18749,13.07415],[80.18875,13.07567],[80.18934,13.07648],[80.19064,13.07747],[80.19118,13.07774],[80.19302,13.07865],[80.19377,13.07927],[80.1932,13.08107],[80.19311,13.08287],[80.19366,13.08467],[80.19405,13.08647],[80.19417,13.08826],[80.19487,13.08943],[80.19544,13.09006],[80.19589,13.09186],[80.19671,13.09364],[80.19672,13.09366],[80.19856,13.09534],[80.20012,13.09366],[80.2004,13.09317],[80.2016,13.09186],[80.20225,13.09144],[80.20409,13.09186],[80.20593,13.09176],[80.20778,13.09112],[80.20962,13.09014],[80.21147,13.09047],[80.21331,13.0902],[80.2137,13.09006],[80.21516,13.08952],[80.217,13.08914],[80.21884,13.08872],[80.21956,13.08826],[80.22069,13.08711],[80.2215,13.08647],[80.22253,13.08533],[80.22361,13.08647],[80.22438,13.08681],[80.22537,13.08647],[80.22622,13.08583],[80.22677,13.08467],[80.22622,13.08308],[80.22598,13.08287],[80.22622,13.08264],[80.22807,13.08264],[80.22833,13.08287],[80.22991,13.08397],[80.23112,13.08467],[80.23175,13.08503],[80.2336,13.08562],[80.23544,13.08615],[80.23722,13.08647],[80.23729,13.08661],[80.23743,13.08826],[80.23729,13.0887],[80.23683,13.09006],[80.23705,13.09186],[80.23729,13.0923],[80.23804,13.09366],[80.23782,13.09546],[80.23729,13.09652],[80.23544,13.09625],[80.2336,13.09676],[80.23312,13.09726],[80.23232,13.09906],[80.2336,13.10001],[80.23544,13.10057],[80.23727,13.09906],[80.23729,13.09897],[80.23731,13.09906],[80.23913,13.10034],[80.24098,13.10031],[80.24282,13.10058],[80.24466,13.10067],[80.2452,13.10086],[80.24466,13.10129],[80.24338,13.10266],[80.24282,13.10305],[80.24123,13.10446],[80.24098,13.10463],[80.23913,13.10545],[80.23828,13.10626],[80.23738,13.10806],[80.23729,13.10819],[80.23581,13.10986],[80.23544,13.11034],[80.2336,13.11158],[80.23175,13.11075],[80.22991,13.11157],[80.22977,13.11166],[80.2288,13.11346],[80.22991,13.11391],[80.23125,13.11526],[80.23163,13.11706],[80.23175,13.11723],[80.23189,13.11706],[80.2336,13.11572],[80.23544,13.1164],[80.23729,13.11571],[80.23815,13.11526],[80.23913,13.11484],[80.24098,13.11401],[80.24282,13.11363],[80.24299,13.11346],[80.24466,13.11249],[80.24651,13.11274],[80.24835,13.11243],[80.2502,13.11235],[80.25204,13.11196],[80.25296,13.11166],[80.25389,13.11151],[80.2541,13.11166],[80.25392,13.11346],[80.25389,13.1135],[80.25204,13.11428],[80.25024,13.11526],[80.2502,13.11529],[80.24835,13.11635],[80.24751,13.11706],[80.24651,13.11788],[80.24572,13.11886],[80.24466,13.12006],[80.24373,13.11886],[80.24287,13.11706],[80.24282,13.11699],[80.24277,13.11706],[80.24166,13.11886],[80.24109,13.12066],[80.24222,13.12246],[80.24098,13.12356],[80.24013,13.12426],[80.23913,13.12529],[80.23874,13.12606],[80.23784,13.12786],[80.23729,13.12814],[80.23544,13.1285],[80.23397,13.12966],[80.2336,13.13034],[80.23316,13.13146],[80.23175,13.13325],[80.23164,13.13326],[80.22991,13.13334],[80.22807,13.13485],[80.22791,13.13506],[80.22622,13.1366],[80.22593,13.13686],[80.22505,13.13866],[80.22438,13.13957],[80.22296,13.14045],[80.22273,13.14225],[80.22438,13.14308],[80.22549,13.14225],[80.22622,13.14128],[80.22807,13.14157],[80.22991,13.1407],[80.23029,13.14045],[80.23175,13.1397],[80.23354,13.13866],[80.2336,13.13858],[80.23436,13.13686],[80.23544,13.13557],[80.23729,13.13592],[80.23913,13.1353],[80.23945,13.13506],[80.24082,13.13326],[80.24098,13.13274],[80.24282,13.13172],[80.2433,13.13146],[80.24466,13.13016],[80.2458,13.12966],[80.24651,13.12948],[80.24669,13.12966],[80.24656,13.13146],[80.24684,13.13326],[80.24777,13.13506],[80.24835,13.13627],[80.24862,13.13686],[80.25007,13.13866],[80.2502,13.13877],[80.25204,13.14038],[80.25213,13.14045],[80.25267,13.14225],[80.25331,13.14405],[80.25389,13.14515],[80.25453,13.14585],[80.25573,13.14653],[80.25757,13.14651],[80.25871,13.14585],[80.25942,13.14505],[80.25993,13.14405],[80.26041,13.14225],[80.26036,13.14045],[80.26126,13.13894],[80.26145,13.13866],[80.26311,13.13691],[80.26317,13.13686],[80.26473,13.13506],[80.26495,13.13461],[80.26553,13.13326],[80.2668,13.13206],[80.26864,13.13168],[80.26921,13.13146],[80.27048,13.13089],[80.27224,13.12966],[80.27233,13.12958],[80.27242,13.12966],[80.27383,13.13146],[80.27417,13.13193],[80.2756,13.13326],[80.27602,13.13353],[80.27786,13.13452],[80.27824,13.13506],[80.27956,13.13686],[80.27971,13.13705],[80.28126,13.13686],[80.28155,13.13683],[80.28276,13.13506],[80.28198,13.13326],[80.28339,13.1321],[80.28524,13.13232],[80.28708,13.13179],[80.28811,13.13326],[80.28893,13.1345],[80.28939,13.13506],[80.29026,13.13686],[80.29077,13.13746],[80.29166,13.13866],[80.2923,13.14045],[80.29262,13.14078],[80.29446,13.14177],[80.29507,13.14225],[80.29452,13.14405],[80.29626,13.14585],[80.2963,13.1459],[80.29644,13.14585]],[[80.22622,13.03719],[80.22438,13.03722],[80.2241,13.03607],[80.22309,13.03427],[80.22438,13.03322],[80.22597,13.03427],[80.22622,13.03541],[80.22632,13.03607],[80.22622,13.03719]],[[80.27417,13.03689],[80.27397,13.03607],[80.27417,13.03578],[80.27446,13.03607],[80.27417,13.03689]],[[80.23729,13.04018],[80.23697,13.03967],[80.23544,13.03844],[80.23514,13.03787],[80.23544,13.03748],[80.23729,13.03778],[80.23744,13.03787],[80.23757,13.03967],[80.23729,13.04018]],[[80.23544,13.04705],[80.23531,13.04687],[80.2336,13.0451],[80.23352,13.04507],[80.2336,13.04504],[80.23534,13.04327],[80.23544,13.04304],[80.23729,13.0423],[80.23794,13.04327],[80.23729,13.04385],[80.23645,13.04507],[80.23558,13.04687],[80.23544,13.04705]],[[80.23175,13.05049],[80.23174,13.05047],[80.22991,13.04961],[80.22807,13.04891],[80.22622,13.04895],[80.22438,13.04923],[80.22336,13.04867],[80.22253,13.04765],[80.22228,13.04687],[80.22253,13.04631],[80.22438,13.04646],[80.22622,13.04635],[80.22807,13.04537],[80.22991,13.0457],[80.23086,13.04687],[80.23126,13.04867],[80.23175,13.05043],[80.23176,13.05047],[80.23175,13.05049]],[[80.22253,13.08391],[80.22154,13.08287],[80.22069,13.08219],[80.22007,13.08107],[80.22069,13.08028],[80.22253,13.08099],[80.22279,13.08107],[80.22336,13.08287],[80.22253,13.08391]],[[80.24466,13.09192],[80.24463,13.09186],[80.24466,13.09183],[80.2447,13.09186],[80.24466,13.09192]]],[[[80.30364,13.14945],[80.30274,13.14765],[80.30267,13.14585],[80.30184,13.1452],[80.30001,13.14585],[80.29999,13.14608],[80.29815,13.1463],[80.29721,13.14765],[80.29815,13.14886],[80.29999,13.1477],[80.3014,13.14945],[80.30184,13.14993],[80.30364,13.14945]]],[[[80.30013,13.15125],[80.29999,13.15114],[80.29982,13.15125],[80.29999,13.1514],[80.30013,13.15125]]],[[[80.20795,13.15305],[80.20778,13.15295],[80.20769,13.15305],[80.20778,13.15317],[80.20795,13.15305]]],[[[80.25803,13.15305],[80.25913,13.15125],[80.25757,13.15055],[80.25706,13.15125],[80.25718,13.15305],[80.25757,13.1534],[80.25803,13.15305]]]]}},{"type":"Feature","properties":{"band":2700},"geometry":{"type":"MultiPolygon","coordinates":[[[[80.20982,12.94789],[80.20962,12.94777],[80.20952,12.94789],[80.20962,12.94803],[80.20982,12.94789]]],[[[80.21345,12.95509],[80.21382,12.95329],[80.21331,12.9527],[80.21147,12.95254],[80.21075,12.95329],[80.21115,12.95509],[80.21147,12.95535],[80.21331,12.95522],[80.21345,12.95509]]],[[[80.24483,12.96049],[80.24521,12.95869],[80.24466,12.9584],[80.24427,12.95869],[80.24455,12.96049],[80.24466,12.96057],[80.24483,12.96049]]],[[[80.25679,12.96049],[80.25603,12.95869],[80.25573,12.95831],[80.2554,12.95869],[80.25523,12.96049],[80.25573,12.96158],[80.25679,12.96049]]],[[[80.21785,12.96409],[80.21804,12.96229],[80.217,12.96114],[80.21516,12.96098],[80.21383,12.96229],[80.21402,12.96409],[80.21516,12.96507],[80.217,12.96491],[80.21785,12.96409]]],[[[80.24911,12.96589],[80.24861,12.96409],[80.24835,12.96388],[80.24651,12.96402],[80.24643,12.96409],[80.24598,12.96589],[80.24651,12.96652],[80.24835,12.9667],[80.24911,12.96589]]],[[[80.14974,12.96769],[80.14876,12.96732],[80.14846,12.96769],[80.14876,12.96868],[80.14974,12.96769]]],[[[80.15155,12.96949],[80.15061,12.96814],[80.1492,12.96949],[80.15061,12.97023],[80.15155,12.96949]]],[[[80.25854,12.97129],[80.25942,12.97068],[80.26,12.96949],[80.25942,12.96808],[80.25896,12.96769],[80.25757,12.9672],[80.25655,12.96769],[80.25573,12.9688],[80.25548,12.96949],[80.25573,12.97007],[80.25687,12.97129],[80.25757,12.97167],[80.25854,12.97129]]],[[[80.15489,12.97309],[80.1543,12.9722],[80.15245,12.97191],[80.15153,12.97309],[80.15245,12.97469],[80.1543,12.97432],[80.15489,12.97309]]],[[[80.25039,12.97489],[80.25204,12.97395],[80.25254,12.97309],[80.25204,12.97136],[80.252,12.97129],[80.2502,12.97053],[80.24873,12.97129],[80.24835,12.97203],[80.24808,12.97309],[80.24835,12.97361],[80.25004,12.97489],[80.2502,12.97526],[80.25039,12.97489]]],[[[80.26133,12.97849],[80.26203,12.97669],[80.26135,12.97489],[80.26126,12.97479],[80.25942,12.97392],[80.25757,12.97445],[80.25709,12.97489],[80.25637,12.97669],[80.25666,12.97849],[80.25757,12.97902],[80.25942,12.97971],[80.26126,12.97861],[80.26133,12.97849]]],[[[80.16429,12.98029],[80.1643,12.97849],[80.16352,12.97761],[80.16167,12.97726],[80.16023,12.97849],[80.16025,12.98029],[80.16167,12.98148],[80.16352,12.98113],[80.16429,12.98029]]],[[[80.25472,12.98029],[80.25537,12.97849],[80.25463,12.97669],[80.25389,12.97621],[80.25204,12.97561],[80.25063,12.97669],[80.2502,12.97728],[80.24971,12.97849],[80.2502,12.98006],[80.25031,12.98029],[80.25204,12.98133],[80.25389,12.98101],[80.25472,12.98029]]],[[[80.18954,12.98568],[80.18934,12.98544],[80.18749,12.98559],[80.18732,12.98568],[80.18749,12.98592],[80.18934,12.98615],[80.18954,12.98568]]],[[[80.24743,12.98748],[80.24831,12.98568],[80.24651,12.98458],[80.24518,12.98568],[80.24587,12.98748],[80.24651,12.98812],[80.24743,12.98748]]],[[[80.17791,12.98928],[80.17827,12.98888],[80.17898,12.98748],[80.17879,12.98568],[80.17827,12.98491],[80.17689,12.98388],[80.17643,12.98367],[80.17458,12.98374],[80.17432,12.98388],[80.17274,12.98528],[80.17248,12.98568],[80.1723,12.98748],[80.17274,12.98841],[80.1734,12.98928],[80.17458,12.99003],[80.17643,12.99011],[80.17791,12.98928]]],[[[80.187,13.02168],[80.18719,13.01988],[80.18565,13.01813],[80.18528,13.01808],[80.1838,13.01792],[80.18347,13.01808],[80.18196,13.01942],[80.18169,13.01988],[80.18167,13.02168],[80.18196,13.02189],[80.1838,13.0233],[80.18565,13.02306],[80.187,13.02168]]],[[[80.18056,13.02348],[80.18011,13.02293],[80.17827,13.02211],[80.17707,13.02348],[80.17827,13.02522],[80.18011,13.02422],[80.18056,13.02348]]],[[[80.11673,13.04507],[80.11557,13.04353],[80.11483,13.04507],[80.11557,13.04581],[80.11673,13.04507]]],[[[80.15259,13.04687],[80.15392,13.04507],[80.15423,13.04327],[80.15372,13.04147],[80.15245,13.03999],[80.15188,13.03967],[80.15061,13.03915],[80.14876,13.03916],[80.14755,13.03967],[80.14692,13.04004],[80.1457,13.04147],[80.14519,13.04327],[80.1455,13.04507],[80.14682,13.04687],[80.14692,13.04695],[80.14876,13.0478],[80.15061,13.04781],[80.15245,13.04699],[80.15259,13.04687]]],[[[80.1664,13.04867],[80.16536,13.04815],[80.16524,13.04867],[80.16536,13.04911],[80.1664,13.04867]]],[[[80.17853,13.04867],[80.17827,13.04806],[80.17662,13.04867],[80.17827,13.04925],[80.17853,13.04867]]],[[[80.1266,13.05407],[80.1266,13.05227],[80.12479,13.05054],[80.12294,13.05059],[80.12127,13.05227],[80.12127,13.05407],[80.12294,13.05575],[80.12479,13.0558],[80.1266,13.05407]]],[[[80.13097,13.05947],[80.13174,13.05767],[80.13131,13.05587],[80.13032,13.05479],[80.12848,13.05412],[80.12663,13.05411],[80.1249,13.05587],[80.12496,13.05767],[80.12574,13.05947],[80.12663,13.06025],[80.12848,13.06074],[80.13032,13.06009],[80.13097,13.05947]]],[[[80.1308,13.06847],[80.13069,13.06667],[80.13032,13.06632],[80.12848,13.06628],[80.12784,13.06667],[80.12663,13.06771],[80.1251,13.06847],[80.12663,13.06908],[80.12848,13.069],[80.13032,13.06896],[80.1308,13.06847]]],[[[80.13797,13.06847],[80.13954,13.06768],[80.14026,13.06667],[80.14093,13.06487],[80.14139,13.06457],[80.14296,13.06307],[80.14313,13.06127],[80.14272,13.05947],[80.14139,13.05772],[80.14131,13.05767],[80.13954,13.05685],[80.1377,13.05682],[80.13585,13.05761],[80.13578,13.05767],[80.13438,13.05947],[80.13402,13.06127],[80.13449,13.06307],[80.13456,13.06487],[80.13401,13.06574],[80.13357,13.06667],[80.13401,13.0676],[80.13486,13.06847],[80.13585,13.06888],[80.1377,13.06856],[80.13797,13.06847]]],[[[80.14398,13.09726],[80.14323,13.09631],[80.14139,13.09635],[80.14068,13.09726],[80.14139,13.09887],[80.14323,13.09893],[80.14398,13.09726]]],[[[80.14043,13.10086],[80.13954,13.10072],[80.13913,13.10086],[80.13954,13.10101],[80.14043,13.10086]]],[[[80.14381,13.10086],[80.14323,13.09928],[80.14179,13.10086],[80.14323,13.10136],[80.14381,13.10086]]],[[[80.14446,13.12426],[80.14323,13.12344],[80.14247,13.12426],[80.14323,13.12526],[80.14446,13.12426]]],[[[80.16628,13.13146],[80.16536,13.13078],[80.16446,13.13146],[80.16536,13.13274],[80.16628,13.13146]]],[[[80.17566,13.13506],[80.17643,13.13376],[80.17662,13.13326],[80.17643,13.13256],[80.17599,13.13146],[80.17458,13.13046],[80.17274,13.13008],[80.17089,13.1301],[80.16905,13.13046],[80.16799,13.13146],[80.16858,13.13326],[80.16905,13.13359],[80.17089,13.13417],[80.17191,13.13506],[80.17274,13.13565],[80.17458,13.13574],[80.17566,13.13506]]],[[[80.28713,13.17645],[80.28731,13.17465],[80.28708,13.17446],[80.28659,13.17465],[80.28698,13.17645],[80.28708,13.17648],[80.28713,13.17645]]],[[[80.29495,13.17645],[80.29446,13.17602],[80.29402,13.17645],[80.29446,13.17693],[80.29495,13.17645]]],[[[80.27936,13.17825],[80.27971,13.17805],[80.28155,13.17681],[80.28174,13.17645],[80.28155,13.17603],[80.27971,13.17477],[80.27888,13.17465],[80.27786,13.17453],[80.27753,13.17465],[80.27602,13.17566],[80.27559,13.17645],[80.27602,13.17786],[80.27628,13.17825],[80.27786,13.17895],[80.27936,13.17825]]],[[[80.27101,13.18005],[80.27233,13.17886],[80.27267,13.17825],[80.2725,13.17645],[80.27233,13.17622],[80.27048,13.1749],[80.26864,13.17518],[80.26738,13.17645],[80.26718,13.17825],[80.26862,13.18005],[80.26864,13.18006],[80.27048,13.1803],[80.27101,13.18005]]],[[[80.18228,13.19804],[80.1838,13.19683],[80.18565,13.19628],[80.1857,13.19624],[80.18736,13.19444],[80.18749,13.19432],[80.18934,13.19387],[80.19118,13.19272],[80.19126,13.19265],[80.19237,13.19085],[80.19302,13.19011],[80.19482,13.18905],[80.19487,13.18901],[80.19638,13.18725],[80.19671,13.18635],[80.197,13.18545],[80.19779,13.18365],[80.19856,13.18319],[80.19988,13.18185],[80.2004,13.18126],[80.20151,13.18005],[80.20225,13.17885],[80.20255,13.17825],[80.20334,13.17645],[80.20409,13.17582],[80.20518,13.17465],[80.20593,13.17333],[80.20617,13.17285],[80.2067,13.17105],[80.20778,13.16987],[80.20837,13.16925],[80.20954,13.16745],[80.20962,13.16721],[80.2101,13.16565],[80.21024,13.16385],[80.21123,13.16205],[80.21147,13.16177],[80.21331,13.16047],[80.21362,13.16025],[80.21516,13.15884],[80.21549,13.15845],[80.21656,13.15665],[80.217,13.1553],[80.21884,13.15497],[80.22069,13.15489],[80.22087,13.15485],[80.22253,13.15447],[80.22438,13.15366],[80.2253,13.15305],[80.22622,13.15232],[80.22727,13.15125],[80.22807,13.15061],[80.22991,13.1497],[80.23078,13.14945],[80.23175,13.14919],[80.23333,13.14945],[80.2336,13.14952],[80.23532,13.15125],[80.23544,13.15144],[80.2362,13.15305],[80.23729,13.15455],[80.2376,13.15485],[80.2385,13.15665],[80.23822,13.15845],[80.23858,13.16025],[80.23902,13.16205],[80.23913,13.16252],[80.2395,13.16385],[80.24096,13.16565],[80.24098,13.16568],[80.24194,13.16745],[80.24271,13.16925],[80.24282,13.16937],[80.24466,13.17059],[80.24651,13.17072],[80.24835,13.17024],[80.2502,13.16967],[80.25142,13.16925],[80.25204,13.16892],[80.25233,13.16925],[80.25283,13.17105],[80.25378,13.17285],[80.25389,13.17296],[80.25573,13.17414],[80.25757,13.17438],[80.25942,13.17382],[80.26061,13.17285],[80.26126,13.17219],[80.26227,13.17105],[80.26311,13.16979],[80.26343,13.16925],[80.26404,13.16745],[80.26495,13.16642],[80.2668,13.16615],[80.26864,13.16643],[80.26968,13.16745],[80.26864,13.16869],[80.26835,13.16925],[80.2684,13.17105],[80.26864,13.17147],[80.26994,13.17285],[80.27048,13.17386],[80.27233,13.1734],[80.27329,13.17285],[80.27417,13.17215],[80.27487,13.17105],[80.27493,13.16925],[80.27417,13.16796],[80.2736,13.16745],[80.27233,13.16637],[80.27132,13.16565],[80.27233,13.1651],[80.27352,13.16385],[80.27417,13.16231],[80.27427,13.16205],[80.27496,13.16025],[80.27602,13.16014],[80.27786,13.15931],[80.27884,13.15845],[80.27971,13.15718],[80.28035,13.15665],[80.28155,13.15552],[80.28214,13.15665],[80.28339,13.15813],[80.2838,13.15845],[80.28524,13.15934],[80.28708,13.15992],[80.28893,13.16001],[80.29077,13.15963],[80.29262,13.1587],[80.29411,13.16025],[80.29446,13.16092],[80.29509,13.16205],[80.29588,13.16385],[80.2963,13.1647],[80.29675,13.16565],[80.29752,13.16745],[80.29806,13.16925],[80.29815,13.16949],[80.29879,13.17105],[80.29999,13.17282],[80.30001,13.17285],[80.30042,13.17465],[80.30056,13.17645],[80.3014,13.17825],[80.30184,13.17924],[80.30215,13.18005],[80.30296,13.18185],[80.30368,13.18286],[80.30414,13.18365],[80.30368,13.18449],[80.30214,13.18545],[80.30368,13.18641],[80.30549,13.18725],[80.30553,13.18726],[80.30737,13.18829],[80.30921,13.18844],[80.31094,13.18905],[80.31106,13.18931],[80.31145,13.19085],[80.31106,13.19162],[80.31072,13.19265],[80.31106,13.19362],[80.31152,13.19444],[80.3129,13.1953],[80.31475,13.1951],[80.31558,13.19444],[80.31638,13.19265],[80.31659,13.19209],[80.31716,13.19085],[80.31844,13.18926],[80.31869,13.18905],[80.32028,13.1876],[80.32052,13.18725],[80.32089,13.18545],[80.32062,13.18365],[80.3204,13.18185],[80.32028,13.18161],[80.31916,13.18005],[80.31844,13.17879],[80.3182,13.17825],[80.31839,13.17645],[80.31784,13.17465],[80.3173,13.17285],[80.3171,13.17105],[80.31659,13.16995],[80.31618,13.16925],[80.31476,13.16745],[80.31475,13.16736],[80.31459,13.16565],[80.31379,13.16385],[80.31305,13.16205],[80.31322,13.16025],[80.31341,13.15845],[80.31325,13.15665],[80.31324,13.15485],[80.3132,13.15305],[80.3129,13.15179],[80.31277,13.15125],[80.31218,13.14945],[80.31204,13.14765],[80.31156,13.14585],[80.31119,13.14405],[80.31106,13.14342],[80.31081,13.14225],[80.31105,13.14045],[80.31101,13.13866],[80.31069,13.13686],[80.31006,13.13506],[80.30924,13.13326],[80.30936,13.13146],[80.30922,13.12966],[80.30921,13.12963],[80.30881,13.12786],[80.30809,13.12606],[80.30795,13.12426],[80.30817,13.12246],[80.3083,13.12066],[80.30841,13.11886],[80.30836,13.11706],[80.30841,13.11526],[80.30853,13.11346],[80.30921,13.11268],[80.31005,13.11166],[80.31106,13.11018],[80.31126,13.10986],[80.3122,13.10806],[80.3129,13.10631],[80.31292,13.10626],[80.31343,13.10446],[80.31376,13.10266],[80.31391,13.10086],[80.31389,13.09906],[80.31369,13.09726],[80.31332,13.09546],[80.3129,13.09411],[80.31276,13.09366],[80.31243,13.09186],[80.3121,13.09006],[80.31178,13.08826],[80.31146,13.08647],[80.31106,13.08496],[80.31098,13.08467],[80.3103,13.08287],[80.30942,13.08107],[80.30921,13.08072],[80.30829,13.07927],[80.30737,13.07805],[80.30688,13.07747],[80.30581,13.07567],[80.30553,13.07506],[80.30498,13.07387],[80.30474,13.07207],[80.30438,13.07027],[80.30383,13.06847],[80.30368,13.06812],[80.30304,13.06667],[80.30202,13.06487],[80.30184,13.06447],[80.30129,13.06307],[80.3008,13.06127],[80.30021,13.05947],[80.29999,13.05819],[80.2999,13.05767],[80.29956,13.05587],[80.29928,13.05407],[80.2988,13.05227],[80.29815,13.05059],[80.2981,13.05047],[80.29715,13.04867],[80.2963,13.04741],[80.2959,13.04687],[80.29453,13.04507],[80.29446,13.0448],[80.29411,13.04327],[80.29363,13.04147],[80.29286,13.03967],[80.29268,13.03787],[80.29262,13.03703],[80.29254,13.03607],[80.29211,13.03427],[80.29153,13.03248],[80.2913,13.03068],[80.29077,13.02889],[80.29077,13.02888],[80.28987,13.02708],[80.28893,13.02576],[80.28852,13.02528],[80.28708,13.02353],[80.28705,13.02348],[80.28649,13.02168],[80.28613,13.01988],[80.2854,13.01808],[80.28524,13.01781],[80.28416,13.01628],[80.28339,13.01548],[80.28213,13.01448],[80.28155,13.0141],[80.27971,13.01326],[80.27786,13.01281],[80.27734,13.01268],[80.27602,13.0123],[80.27417,13.01136],[80.27259,13.01088],[80.27396,13.00908],[80.27417,13.0089],[80.27553,13.00728],[80.27602,13.0063],[80.27637,13.00548],[80.2767,13.00368],[80.27659,13.00188],[80.27602,13.00008],[80.27602,13.00007],[80.27485,12.99828],[80.27417,12.99742],[80.2736,12.99648],[80.27355,12.99468],[80.27291,12.99288],[80.27233,12.99205],[80.27138,12.99108],[80.27048,12.99045],[80.26864,12.98976],[80.2668,12.98968],[80.26495,12.99015],[80.26388,12.98928],[80.26435,12.98748],[80.26421,12.98568],[80.26397,12.98388],[80.26311,12.98235],[80.26288,12.98208],[80.26126,12.98103],[80.25942,12.98073],[80.25757,12.98123],[80.25643,12.98208],[80.25573,12.98265],[80.25389,12.98317],[80.25261,12.98388],[80.25204,12.98427],[80.25077,12.98568],[80.2502,12.98675],[80.24936,12.98748],[80.24835,12.98805],[80.24735,12.98928],[80.24674,12.99108],[80.24711,12.99288],[80.24651,12.99369],[80.24552,12.99468],[80.24466,12.99572],[80.24409,12.99648],[80.24282,12.99741],[80.24098,12.99714],[80.23913,12.99719],[80.23729,12.99756],[80.23544,12.99741],[80.2336,12.99724],[80.23175,12.99737],[80.22991,12.9978],[80.22859,12.99828],[80.22807,12.9985],[80.2278,12.99828],[80.22642,12.99648],[80.22774,12.99468],[80.22807,12.99414],[80.22894,12.99288],[80.22991,12.99157],[80.23021,12.99108],[80.23084,12.98928],[80.231,12.98748],[80.23124,12.98568],[80.23175,12.98536],[80.2336,12.98502],[80.23544,12.98439],[80.23719,12.98388],[80.23729,12.98385],[80.23747,12.98388],[80.23913,12.98411],[80.2396,12.98388],[80.24098,12.98277],[80.24282,12.98364],[80.24466,12.98239],[80.24486,12.98208],[80.24466,12.98049],[80.24462,12.98029],[80.24282,12.97922],[80.24098,12.98001],[80.23913,12.9787],[80.23729,12.97898],[80.23544,12.97905],[80.23391,12.97849],[80.2336,12.9784],[80.23175,12.97809],[80.22991,12.97754],[80.22931,12.97669],[80.22807,12.97513],[80.22768,12.97489],[80.22622,12.97368],[80.22582,12.97309],[80.22438,12.97158],[80.22385,12.97129],[80.22253,12.9707],[80.22069,12.97052],[80.21884,12.9709],[80.21824,12.97129],[80.217,12.97223],[80.21628,12.97309],[80.21516,12.97456],[80.21486,12.97489],[80.2134,12.97669],[80.21331,12.97691],[80.21279,12.97849],[80.21231,12.98029],[80.21147,12.98204],[80.21145,12.98208],[80.21119,12.98388],[80.21117,12.98568],[80.21035,12.98748],[80.20962,12.98778],[80.20778,12.98868],[80.20728,12.98928],[80.20701,12.99108],[80.20677,12.99288],[80.20694,12.99468],[80.20659,12.99648],[80.20658,12.99828],[80.20593,12.99914],[80.20482,12.99828],[80.20409,12.99781],[80.20225,12.9967],[80.20111,12.99648],[80.2004,12.99636],[80.199,12.99648],[80.19856,12.99652],[80.19849,12.99648],[80.19685,12.99468],[80.19671,12.99453],[80.19487,12.99316],[80.19372,12.99288],[80.19302,12.99273],[80.19118,12.99188],[80.18934,12.99136],[80.18864,12.99108],[80.18749,12.99036],[80.18635,12.98928],[80.18689,12.98748],[80.18565,12.98644],[80.1838,12.98745],[80.18378,12.98748],[80.1838,12.98762],[80.18457,12.98928],[80.1838,12.98967],[80.18264,12.99108],[80.18265,12.99288],[80.1838,12.99425],[80.18429,12.99468],[80.1846,12.99648],[80.18536,12.99828],[80.18565,12.99862],[80.18749,12.99991],[80.18779,13.00008],[80.18934,13.00128],[80.19017,13.00188],[80.19118,13.00275],[80.19176,13.00368],[80.19237,13.00548],[80.19201,13.00728],[80.19149,13.00908],[80.19118,13.01044],[80.19107,13.01088],[80.18963,13.01268],[80.18934,13.01299],[80.18749,13.01387],[80.18676,13.01448],[80.18583,13.01628],[80.18571,13.01808],[80.18749,13.01954],[80.18869,13.01988],[80.18934,13.02002],[80.18983,13.01988],[80.19118,13.01935],[80.19302,13.01844],[80.1946,13.01808],[80.19487,13.018],[80.19661,13.01628],[80.19671,13.01607],[80.19813,13.01448],[80.19856,13.01419],[80.19876,13.01448],[80.19902,13.01628],[80.19998,13.01808],[80.2004,13.01874],[80.20112,13.01988],[80.20213,13.02168],[80.20148,13.02348],[80.20142,13.02528],[80.202,13.02708],[80.20164,13.02888],[80.2004,13.0293],[80.19856,13.02949],[80.19671,13.02935],[80.19487,13.02998],[80.19407,13.03068],[80.19302,13.03177],[80.19212,13.03248],[80.19118,13.03315],[80.18934,13.03419],[80.18924,13.03427],[80.18777,13.03607],[80.18749,13.03688],[80.1872,13.03787],[80.18565,13.03936],[80.1838,13.03943],[80.18318,13.03967],[80.18196,13.04027],[80.18128,13.03967],[80.18011,13.03869],[80.17827,13.03804],[80.17643,13.03834],[80.17472,13.03787],[80.17458,13.03784],[80.17274,13.03786],[80.17089,13.03715],[80.16912,13.03607],[80.16905,13.03605],[80.1689,13.03607],[80.16721,13.03652],[80.16608,13.03787],[80.16607,13.03967],[80.16721,13.04106],[80.16875,13.04147],[80.16905,13.04153],[80.17089,13.04275],[80.17126,13.04327],[80.17274,13.04421],[80.17458,13.04429],[80.17581,13.04507],[80.17643,13.04573],[80.17827,13.04614],[80.18011,13.04572],[80.1806,13.04687],[80.18196,13.0483],[80.18268,13.04867],[80.18355,13.05047],[80.18196,13.05153],[80.18052,13.05227],[80.18011,13.05256],[80.17982,13.05227],[80.17827,13.05109],[80.17643,13.05066],[80.17458,13.05162],[80.17382,13.05227],[80.17311,13.05407],[80.17274,13.05497],[80.17089,13.05546],[80.16905,13.05481],[80.16757,13.05407],[80.16823,13.05227],[80.16721,13.05087],[80.16536,13.05116],[80.16482,13.05227],[80.16352,13.05351],[80.16167,13.05396],[80.16145,13.05407],[80.15983,13.05497],[80.15798,13.0545],[80.15671,13.05407],[80.15614,13.0539],[80.1543,13.05383],[80.15327,13.05407],[80.15245,13.05428],[80.15061,13.05537],[80.14876,13.05584],[80.14864,13.05587],[80.14692,13.05636],[80.14507,13.05762],[80.14502,13.05767],[80.14376,13.05947],[80.14332,13.06127],[80.14342,13.06307],[80.14412,13.06487],[80.14507,13.06608],[80.14577,13.06667],[80.14692,13.06738],[80.14876,13.0679],[80.15061,13.06785],[80.15245,13.06722],[80.1543,13.06703],[80.15614,13.06696],[80.15709,13.06667],[80.15798,13.06636],[80.15856,13.06667],[80.15983,13.06757],[80.16064,13.06847],[80.16167,13.06942],[80.16303,13.07027],[80.16352,13.07052],[80.16536,13.07108],[80.16721,13.07201],[80.16727,13.07207],[80.16892,13.07387],[80.16851,13.07567],[80.16721,13.07609],[80.16536,13.07737],[80.16526,13.07747],[80.16368,13.07927],[80.16352,13.07948],[80.16167,13.07975],[80.16079,13.08107],[80.16167,13.08242],[80.1619,13.08287],[80.16167,13.08385],[80.16149,13.08467],[80.1615,13.08647],[80.16167,13.0872],[80.16193,13.08826],[80.16228,13.09006],[80.16167,13.09093],[80.16067,13.09186],[80.15983,13.09287],[80.15938,13.09366],[80.15912,13.09546],[80.15963,13.09726],[80.15798,13.09874],[80.15614,13.0986],[80.15432,13.09906],[80.1543,13.09907],[80.15245,13.10046],[80.15138,13.09906],[80.15061,13.09765],[80.15013,13.09726],[80.14876,13.09669],[80.14692,13.09719],[80.14681,13.09726],[80.14575,13.09906],[80.14617,13.10086],[80.14673,13.10266],[80.14692,13.10353],[80.14717,13.10446],[80.14771,13.10626],[80.14797,13.10806],[80.14819,13.10986],[80.14789,13.11166],[80.14692,13.11254],[80.14584,13.11346],[80.14507,13.11479],[80.1449,13.11526],[80.14507,13.11588],[80.14554,13.11706],[80.14692,13.11812],[80.14766,13.11886],[80.14692,13.12032],[80.14674,13.12066],[80.14639,13.12246],[80.14692,13.12305],[80.14876,13.12317],[80.14964,13.12246],[80.15061,13.1217],[80.1517,13.12066],[80.15174,13.11886],[80.15061,13.11754],[80.15005,13.11706],[80.15056,13.11526],[80.15061,13.11518],[80.15245,13.11416],[80.1543,13.11354],[80.1544,13.11346],[80.15582,13.11166],[80.15606,13.10986],[80.15614,13.10959],[80.15798,13.10831],[80.15851,13.10806],[80.15983,13.10726],[80.16145,13.10626],[80.16167,13.10616],[80.16352,13.10618],[80.16536,13.10545],[80.16721,13.10556],[80.16905,13.10619],[80.17043,13.10626],[80.17089,13.10628],[80.171,13.10626],[80.17274,13.10586],[80.17458,13.10525],[80.17643,13.10517],[80.17827,13.10551],[80.18011,13.10586],[80.18134,13.10626],[80.18196,13.1065],[80.1838,13.10765],[80.18444,13.10806],[80.18565,13.10875],[80.18749,13.10943],[80.18934,13.1097],[80.19118,13.10973],[80.19169,13.10986],[80.19302,13.11019],[80.19487,13.11027],[80.19671,13.11007],[80.19856,13.11005],[80.1995,13.10986],[80.2004,13.1098],[80.20225,13.10976],[80.20282,13.10986],[80.20409,13.11014],[80.20593,13.11115],[80.20778,13.1115],[80.20962,13.11129],[80.21147,13.11123],[80.21163,13.11166],[80.21206,13.11346],[80.21311,13.11526],[80.21331,13.11554],[80.21516,13.11693],[80.21548,13.11706],[80.217,13.118],[80.21751,13.11886],[80.217,13.12032],[80.21638,13.12066],[80.21516,13.12199],[80.21493,13.12066],[80.21433,13.11886],[80.21331,13.11801],[80.21147,13.1178],[80.20987,13.11886],[80.20962,13.11924],[80.20778,13.11947],[80.20678,13.11886],[80.20593,13.11782],[80.20553,13.11706],[80.20458,13.11526],[80.20409,13.11467],[80.20269,13.11346],[80.20225,13.11317],[80.2004,13.11243],[80.19856,13.1122],[80.19671,13.11244],[80.19487,13.11318],[80.19445,13.11346],[80.19302,13.1147],[80.19256,13.11526],[80.19161,13.11706],[80.19123,13.11886],[80.19133,13.12066],[80.19193,13.12246],[80.19302,13.12408],[80.19318,13.12426],[80.19487,13.12557],[80.19544,13.12606],[80.19671,13.12776],[80.19679,13.12786],[80.19856,13.12933],[80.19928,13.12966],[80.2004,13.13008],[80.20225,13.13092],[80.20297,13.13146],[80.20409,13.1323],[80.20478,13.13326],[80.20427,13.13506],[80.20409,13.13533],[80.20253,13.13686],[80.20225,13.13721],[80.20147,13.13866],[80.2004,13.13995],[80.19859,13.14045],[80.2004,13.14154],[80.2007,13.14225],[80.2004,13.14346],[80.20027,13.14405],[80.2004,13.14472],[80.20065,13.14585],[80.2004,13.14643],[80.19985,13.14765],[80.19856,13.14898],[80.19671,13.148],[80.19626,13.14765],[80.19487,13.14636],[80.19393,13.14585],[80.19332,13.14405],[80.19302,13.14274],[80.1929,13.14225],[80.19151,13.14045],[80.19118,13.14019],[80.18934,13.13938],[80.18779,13.13866],[80.18749,13.13851],[80.18565,13.13806],[80.1838,13.13817],[80.18196,13.13694],[80.18051,13.13686],[80.18011,13.13683],[80.18006,13.13686],[80.17827,13.13773],[80.17744,13.13866],[80.17685,13.14045],[80.17723,13.14225],[80.17827,13.14355],[80.17915,13.14405],[80.18011,13.14444],[80.18196,13.14511],[80.18269,13.14585],[80.1838,13.14684],[80.18459,13.14765],[80.18565,13.14887],[80.18602,13.14945],[80.18587,13.15125],[80.18637,13.15305],[80.18749,13.15464],[80.18772,13.15485],[80.18926,13.15665],[80.18934,13.15676],[80.19082,13.15845],[80.19118,13.15873],[80.1927,13.16025],[80.19302,13.16066],[80.19463,13.16205],[80.19439,13.16385],[80.1938,13.16565],[80.19302,13.16667],[80.19256,13.16745],[80.19198,13.16925],[80.19159,13.17105],[80.19118,13.17153],[80.1902,13.17285],[80.18951,13.17465],[80.18934,13.17516],[80.18889,13.17645],[80.18856,13.17825],[80.18837,13.18005],[80.18749,13.1807],[80.18655,13.18185],[80.18583,13.18365],[80.18565,13.18399],[80.18432,13.18545],[80.1838,13.18593],[80.18291,13.18725],[80.18235,13.18905],[80.18196,13.18946],[80.1804,13.19085],[80.18011,13.19158],[80.17968,13.19265],[80.17827,13.194],[80.17643,13.19358],[80.17458,13.19329],[80.17373,13.19444],[80.17458,13.19524],[80.17598,13.19624],[80.17643,13.19658],[80.17822,13.19624],[80.17827,13.1962],[80.17828,13.19624],[80.17945,13.19804],[80.18011,13.19844],[80.18196,13.19828],[80.18228,13.19804]],[[80.17827,13.05789],[80.17785,13.05767],[80.17795,13.05587],[80.17827,13.05539],[80.17851,13.05587],[80.17892,13.05767],[80.17827,13.05789]],[[80.18565,13.05959],[80.1838,13.05948],[80.18373,13.05947],[80.1838,13.05946],[80.18565,13.05939],[80.18623,13.05947],[80.18565,13.05959]],[[80.24835,13.15498],[80.24826,13.15485],[80.24798,13.15305],[80.24835,13.15236],[80.24855,13.15305],[80.24844,13.15485],[80.24835,13.15498]],[[80.2668,13.15683],[80.26652,13.15665],[80.2668,13.15598],[80.26757,13.15485],[80.26785,13.15305],[80.26781,13.15125],[80.26763,13.14945],[80.26765,13.14765],[80.26822,13.14585],[80.26864,13.14431],[80.26871,13.14405],[80.26967,13.14225],[80.27048,13.14139],[80.27233,13.14185],[80.27258,13.14225],[80.2735,13.14405],[80.27402,13.14585],[80.27417,13.14632],[80.27465,13.14765],[80.27417,13.14892],[80.27344,13.14945],[80.27233,13.14976],[80.27048,13.15107],[80.27022,13.15125],[80.26929,13.15305],[80.269,13.15485],[80.26864,13.15569],[80.2673,13.15665],[80.2668,13.15683]],[[80.2502,13.16412],[80.24935,13.16385],[80.24929,13.16205],[80.2502,13.16045],[80.25121,13.16205],[80.25119,13.16385],[80.2502,13.16412]]],[[[80.317,13.19984],[80.31696,13.19804],[80.31659,13.19768],[80.31475,13.19754],[80.31426,13.19804],[80.31422,13.19984],[80.31475,13.20035],[80.31659,13.20105],[80.317,13.19984]]],[[[80.3177,13.20344],[80.31659,13.20243],[80.31634,13.20344],[80.31659,13.20368],[80.3177,13.20344]]]]}},{"type":"Feature","properties":{"band":3600},"geometry":{"type":"MultiPolygon","coordinates":[[[[80.08606,12.8939],[80.0879,12.8921],[80.0879,12.8921],[80.0879,12.8921],[80.08606,12.8903],[80.08606,12.8903],[80.08606,12.8903],[80.08421,12.8921],[80.08421,12.8921],[80.08421,12.8921],[80.08606,12.8939],[80.08606,12.8939],[80.08606,12.8939]]],[[[80.1838,12.8993],[80.1838,12.8993],[80.18196,12.8975],[80.18196,12.8975],[80.18196,12.8975],[80.18196,12.8993],[80.18196,12.8993],[80.1838,12.8993],[80.1838,12.8993]]],[[[80.22807,12.8993],[80.22807,12.8975],[80.22807,12.8975],[80.22807,12.8975],[80.22807,12.8993],[80.22807,12.8993],[80.22807,12.8993]]],[[[80.24835,12.8993],[80.24835,12.8975],[80.24835,12.8957],[80.24835,12.8957],[80.24651,12.8957],[80.24651,12.8957],[80.24466,12.8975],[80.24466,12.8975],[80.24466,12.8975],[80.24651,12.8993],[80.24651,12.8993],[80.24835,12.8993],[80.24835,12.8993]]],[[[80.18934,12.9065],[80.18934,12.9065],[80.18749,12.9065],[80.18749,12.9065],[80.18749,12.9065],[80.18934,12.9065],[80.18934,12.9065]]],[[[80.10081,12.9119],[80.10081,12.9101],[80.10081,12.9083],[80.10081,12.9065],[80.10081,12.9065],[80.09897,12.9047],[80.09897,12.9047],[80.09712,12.9029],[80.09712,12.9029],[80.09528,12.9029],[80.09343,12.9011],[80.09343,12.8993],[80.09343,12.8993],[80.09159,12.8975],[80.09159,12.8957],[80.09159,12.8957],[80.08975,12.8957],[80.0879,12.8957],[80.0879,12.8957],[80.0879,12.8975],[80.0879,12.8993],[80.0879,12.8993],[80.08975,12.9011],[80.08975,12.9011],[80.09159,12.9029],[80.09159,12.9029],[80.09343,12.9047],[80.09343,12.9065],[80.09343,12.9065],[80.09528,12.9083],[80.09528,12.9101],[80.09528,12.9101],[80.09712,12.9119],[80.09712,12.9119],[80.09897,12.9119],[80.10081,12.9119],[80.10081,12.9119]]],[[[80.19118,12.9119],[80.19302,12.9101],[80.19302,12.9101],[80.19302,12.9083],[80.19302,12.9083],[80.19118,12.9083],[80.19118,12.9083],[80.18934,12.9101],[80.18934,12.9101],[80.18934,12.9101],[80.19118,12.9119],[80.19118,12.9119],[80.19118,12.9119]]],[[[80.10819,12.9209],[80.11003,12.9191],[80.11003,12.9191],[80.11003,12.9173],[80.11003,12.9155],[80.11003,12.9137],[80.11003,12.9137],[80.10819,12.9119],[80.10819,12.9119],[80.10634,12.9119],[80.1045,12.9119],[80.1045,12.9119],[80.10266,12.9137],[80.10266,12.9137],[80.10081,12.9155],[80.10081,12.9155],[80.10081,12.9173],[80.10081,12.9173],[80.10266,12.9191],[80.10266,12.9209],[80.10266,12.9209],[80.1045,12.9209],[80.10634,12.9209],[80.10819,12.9209],[80.10819,12.9209]]],[[[80.13216,12.9245],[80.13401,12.9227],[80.13585,12.9227],[80.1377,12.9227],[80.1377,12.9227],[80.1377,12.9227],[80.13585,12.9227],[80.13401,12.9227],[80.13216,12.9227],[80.13032,12.9209],[80.13032,12.9209],[80.13032,12.9209],[80.13032,12.9227],[80.13032,12.9245],[80.13032,12.9245],[80.13216,12.9245],[80.13216,12.9245]]],[[[80.10081,12.9263],[80.10081,12.9245],[80.10081,12.9245],[80.10081,12.9245],[80.10081,12.9263],[80.10081,12.9263],[80.10081,12.9263]]],[[[80.10819,12.9263],[80.10819,12.9263],[80.10634,12.9245],[80.10634,12.9245],[80.1045,12.9245],[80.1045,12.9245],[80.1045,12.9263],[80.1045,12.9263],[80.10634,12.9263],[80.10819,12.9263],[80.10819,12.9263]]],[[[80.17458,12.95509],[80.17643,12.95329],[80.17643,12.95329],[80.17643,12.95149],[80.17643,12.94969],[80.17643,12.94969],[80.17458,12.94789],[80.17458,12.94789],[80.17274,12.94789],[80.17274,12.94789],[80.17089,12.94969],[80.16905,12.94969],[80.16905,12.94969],[80.16905,12.95149],[80.16905,12.95329],[80.16905,12.95329],[80.17089,12.95509],[80.17089,12.95509],[80.17089,12.95509],[80.17274,12.95329],[80.17458,12.95509],[80.17458,12.95509],[80.17458,12.95509]]],[[[80.09897,12.99828],[80.09897,12.99828],[80.09712,12.99648],[80.09712,12.99648],[80.09712,12.99648],[80.09712,12.99828],[80.09712,12.99828],[80.09897,12.99828],[80.09897,12.99828]]],[[[80.1045,12.99828],[80.1045,12.99828],[80.10266,12.99828],[80.10266,12.99828],[80.10266,12.99828],[80.1045,12.99828],[80.1045,12.99828]]],[[[80.13585,13.01628],[80.13585,13.01448],[80.13585,13.01448],[80.13585,13.01448],[80.13585,13.01628],[80.13585,13.01628],[80.13585,13.01628]]],[[[80.13401,13.02528],[80.13401,13.02528],[80.13216,13.02528],[80.13216,13.02528],[80.13216,13.02528],[80.13401,13.02528],[80.13401,13.02528]]],[[[80.05286,13.03967],[80.05286,13.03787],[80.05286,13.03787],[80.05286,13.03787],[80.05286,13.03967],[80.05286,13.03967],[80.05286,13.03967]]],[[[80.05839,13.04147],[80.05839,13.03967],[80.05839,13.03967],[80.05655,13.03967],[80.05655,13.03967],[80.05655,13.04147],[80.05655,13.04147],[80.05839,13.04147],[80.05839,13.04147]]],[[[80.06393,13.04507],[80.06393,13.04327],[80.06393,13.04147],[80.06393,13.04147],[80.06208,13.04147],[80.06208,13.04147],[80.06208,13.04327],[80.06208,13.04507],[80.06208,13.04507],[80.06393,13.04507],[80.06393,13.04507]]],[[[80.09343,13.06667],[80.09343,13.06487],[80.09343,13.06487],[80.09343,13.06487],[80.09343,13.06667],[80.09343,13.06667],[80.09343,13.06667]]],[[[80.11003,13.07927],[80.11188,13.07747],[80.11188,13.07747],[80.11188,13.07747],[80.11003,13.07747],[80.11003,13.07747],[80.11003,13.07927],[80.11003,13.07927],[80.11003,13.07927]]],[[[80.07315,13.11886],[80.07315,13.11886],[80.07315,13.11886],[80.07315,13.11886],[80.07315,13.11886]]],[[[80.08606,13.12066],[80.0879,13.11886],[80.0879,13.11886],[80.0879,13.11886],[80.08606,13.11706],[80.08606,13.11706],[80.08606,13.11706],[80.08421,13.11886],[80.08421,13.11886],[80.08421,13.11886],[80.08606,13.12066],[80.08606,13.12066],[80.08606,13.12066]]],[[[80.10266,13.12246],[80.1045,13.12066],[80.1045,13.12066],[80.1045,13.11886],[80.1045,13.11706],[80.1045,13.11706],[80.10266,13.11706],[80.10081,13.11706],[80.09897,13.11706],[80.09712,13.11706],[80.09712,13.11706],[80.09528,13.11886],[80.09528,13.11886],[80.09528,13.11886],[80.09712,13.12066],[80.09712,13.12066],[80.09897,13.12246],[80.09897,13.12246],[80.10081,13.12246],[80.10266,13.12246],[80.10266,13.12246]]],[[[80.11188,13.21064],[80.11188,13.20884],[80.11372,13.20704],[80.11557,13.20884],[80.11557,13.20884],[80.11741,13.20884],[80.11925,13.20884],[80.11925,13.20884],[80.1211,13.20704],[80.1211,13.20704],[80.1211,13.20524],[80.1211,13.20524],[80.11925,13.20344],[80.11925,13.20344],[80.11741,13.20164],[80.11741,13.20164],[80.11741,13.20164],[80.11557,13.20344],[80.11372,13.20344],[80.11372,13.20344],[80.11188,13.20524],[80.11003,13.20524],[80.10819,13.20524],[80.10819,13.20524],[80.10634,13.20704],[80.10634,13.20704],[80.10634,13.20884],[80.10634,13.20884],[80.10819,13.21064],[80.10819,13.21064],[80.11003,13.21064],[80.11188,13.21064],[80.11188,13.21064]]],[[[80.06946,13.21424],[80.06946,13.21244],[80.06946,13.21244],[80.06946,13.21244],[80.06946,13.21424],[80.06946,13.21424],[80.06946,13.21424]]],[[[80.07868,13.21424],[80.07868,13.21244],[80.07868,13.21244],[80.07684,13.21244],[80.07684,13.21244],[80.07684,13.21244],[80.07868,13.21424],[80.07868,13.21424],[80.07868,13.21424]]],[[[80.0879,13.21424],[80.0879,13.21244],[80.0879,13.21064],[80.0879,13.21064],[80.0879,13.21064],[80.08606,13.21244],[80.08606,13.21244],[80.08606,13.21424],[80.08606,13.21424],[80.0879,13.21424],[80.0879,13.21424]]],[[[80.09343,13.21424],[80.09528,13.21244],[80.09712,13.21244],[80.09897,13.21244],[80.10081,13.21244],[80.10081,13.21244],[80.10266,13.21064],[80.10266,13.21064],[80.10266,13.21064],[80.10081,13.20884],[80.10081,13.20884],[80.09897,13.20704],[80.09897,13.20704],[80.09897,13.20704],[80.09712,13.20884],[80.09712,13.20884],[80.09528,13.21064],[80.09343,13.21064],[80.09159,13.21064],[80.09159,13.21064],[80.09159,13.21244],[80.09159,13.21244],[80.09343,13.21424],[80.09343,13.21424],[80.09343,13.21424]]],[[[80.19671,13.22144],[80.19671,13.21964],[80.19856,13.21784],[80.19856,13.21784],[80.19856,13.21604],[80.19856,13.21604],[80.19671,13.21424],[80.19671,13.21244],[80.19671,13.21064],[80.19671,13.20884],[80.19671,13.20884],[80.19487,13.20884],[80.19302,13.20884],[80.19302,13.20884],[80.19302,13.21064],[80.19302,13.21064],[80.19487,13.21244],[80.19487,13.21244],[80.19671,13.21424],[80.19487,13.21604],[80.19487,13.21604],[80.19487,13.21604],[80.19671,13.21784],[80.19671,13.21964],[80.19671,13.22144],[80.19671,13.22144],[80.19671,13.22144]]],[[[80.32766,13.22864],[80.3295,13.22684],[80.3295,13.22684],[80.3295,13.22504],[80.3295,13.22324],[80.3295,13.22144],[80.3295,13.21964],[80.33135,13.21784],[80.33135,13.21784],[80.33135,13.21604],[80.33135,13.21424],[80.33135,13.21244],[80.33135,13.21064],[80.33135,13.21064],[80.3295,13.20884],[80.3295,13.20704],[80.3295,13.20524],[80.3295,13.20524],[80.32766,13.20344],[80.32766,13.20164],[80.32766,13.20164],[80.32581,13.19984],[80.32581,13.19804],[80.32581,13.19804],[80.32397,13.19624],[80.32397,13.19444],[80.32581,13.19265],[80.32581,13.19265],[80.32766,13.19085],[80.32766,13.19085],[80.32766,13.18905],[80.32766,13.18725],[80.32766,13.18545],[80.32766,13.18365],[80.32766,13.18185],[80.32766,13.18005],[80.32766,13.17825],[80.32766,13.17825],[80.32581,13.17645],[80.32581,13.17465],[80.32581,13.17285],[80.32581,13.17285],[80.32397,13.17105],[80.32397,13.16925],[80.32397,13.16745],[80.32397,13.16745],[80.32212,13.16565],[80.32212,13.16385],[80.32212,13.16205],[80.32212,13.16205],[80.32028,13.16025],[80.32028,13.15845],[80.32028,13.15665],[80.32028,13.15485],[80.32028,13.15305],[80.32028,13.15125],[80.32028,13.14945],[80.32028,13.14765],[80.32028,13.14585],[80.32028,13.14585],[80.31844,13.14405],[80.31844,13.14225],[80.31844,13.14045],[80.31844,13.13866],[80.31844,13.13686],[80.31844,13.13506],[80.31844,13.13326],[80.31844,13.13326],[80.31659,13.13146],[80.31659,13.12966],[80.31659,13.12786],[80.31659,13.12606],[80.31659,13.12606],[80.31475,13.12426],[80.31659,13.12246],[80.31659,13.12246],[80.31659,13.12066],[80.31659,13.11886],[80.31659,13.11706],[80.31659,13.11526],[80.31844,13.11346],[80.31844,13.11346],[80.31844,13.11166],[80.32028,13.10986],[80.32028,13.10986],[80.32028,13.10806],[80.32028,13.10626],[80.32028,13.10446],[80.32212,13.10266],[80.32212,13.10266],[80.32212,13.10086],[80.32212,13.09906],[80.32212,13.09726],[80.32212,13.09726],[80.32028,13.09546],[80.32028,13.09366],[80.32028,13.09186],[80.32028,13.09006],[80.32028,13.08826],[80.32028,13.08826],[80.31844,13.08647],[80.31844,13.08467],[80.31844,13.08287],[80.31844,13.08107],[80.31844,13.08107],[80.31659,13.07927],[80.31659,13.07747],[80.31659,13.07747],[80.31475,13.07567],[80.31475,13.07387],[80.31475,13.07387],[80.3129,13.07207],[80.3129,13.07027],[80.3129,13.07027],[80.31106,13.06847],[80.31106,13.06667],[80.31106,13.06487],[80.31106,13.06487],[80.30921,13.06307],[80.30921,13.06127],[80.30921,13.06127],[80.30737,13.05947],[80.30737,13.05767],[80.30737,13.05587],[80.30737,13.05407],[80.30737,13.05227],[80.30737,13.05227],[80.30553,13.05047],[80.30553,13.04867],[80.30553,13.04687],[80.30553,13.04687],[80.30368,13.04507],[80.30368,13.04327],[80.30368,13.04327],[80.30184,13.04147],[80.30184,13.03967],[80.30184,13.03967],[80.29999,13.03787],[80.29999,13.03607],[80.29999,13.03427],[80.29999,13.03248],[80.29999,13.03248],[80.29815,13.03068],[80.29815,13.02888],[80.29815,13.02708],[80.29815,13.02528],[80.29815,13.02528],[80.2963,13.02348],[80.2963,13.02168],[80.2963,13.02168],[80.29446,13.01988],[80.29446,13.01988],[80.29262,13.01808],[80.29262,13.01628],[80.29262,13.01448],[80.29262,13.01448],[80.29077,13.01268],[80.29077,13.01268],[80.28893,13.01088],[80.28893,13.01088],[80.28708,13.00908],[80.28708,13.00908],[80.28524,13.00728],[80.28524,13.00728],[80.28339,13.00548],[80.28339,13.00368],[80.28339,13.00188],[80.28339,13.00008],[80.28339,12.99828],[80.28339,12.99648],[80.28339,12.99648],[80.28155,12.99468],[80.28155,12.99288],[80.28155,12.99288],[80.27971,12.99108],[80.27971,12.98928],[80.27971,12.98928],[80.27786,12.98748],[80.27786,12.98568],[80.27786,12.98568],[80.27602,12.98568],[80.27417,12.98388],[80.27417,12.98388],[80.27233,12.98388],[80.27048,12.98208],[80.27048,12.98029],[80.27048,12.97849],[80.27048,12.97669],[80.27048,12.97669],[80.26864,12.97489],[80.26864,12.97309],[80.26864,12.97129],[80.26864,12.97129],[80.2668,12.96949],[80.2668,12.96769],[80.2668,12.96589],[80.2668,12.96409],[80.2668,12.96409],[80.26495,12.96229],[80.26495,12.96049],[80.26495,12.95869],[80.26495,12.95869],[80.26311,12.95689],[80.26311,12.95509],[80.26311,12.95329],[80.26311,12.95149],[80.26311,12.95149],[80.26126,12.94969],[80.26126,12.94789],[80.26126,12.94609],[80.26126,12.94609],[80.25942,12.94429],[80.25942,12.94249],[80.25942,12.94069],[80.25942,12.93889],[80.25942,12.93709],[80.25942,12.93709],[80.25757,12.93529],[80.25757,12.93529],[80.25573,12.93349],[80.25573,12.93169],[80.25573,12.92989],[80.25757,12.92809],[80.25757,12.92809],[80.25757,12.92809],[80.25573,12.9263],[80.25573,12.9245],[80.25573,12.9227],[80.25573,12.9227],[80.25389,12.9209],[80.25573,12.9191],[80.25573,12.9191],[80.25573,12.9173],[80.25573,12.9173],[80.25389,12.9155],[80.25389,12.9137],[80.25389,12.9119],[80.25389,12.9119],[80.25204,12.9101],[80.25204,12.9101],[80.2502,12.9101],[80.24835,12.9101],[80.24835,12.9101],[80.24651,12.9119],[80.24651,12.9119],[80.24651,12.9137],[80.24651,12.9155],[80.24651,12.9173],[80.24651,12.9191],[80.24651,12.9209],[80.24651,12.9227],[80.24651,12.9245],[80.24651,12.9263],[80.24651,12.92809],[80.24651,12.92989],[80.24651,12.92989],[80.24835,12.93169],[80.24835,12.93169],[80.2502,12.93349],[80.24835,12.93529],[80.24835,12.93529],[80.24651,12.93709],[80.24651,12.93709],[80.24651,12.93889],[80.24466,12.94069],[80.24282,12.93889],[80.24282,12.93889],[80.24098,12.93709],[80.24098,12.93529],[80.24098,12.93529],[80.23913,12.93349],[80.23913,12.93169],[80.23913,12.92989],[80.23913,12.92989],[80.23729,12.92989],[80.23544,12.92809],[80.23544,12.9263],[80.23544,12.9245],[80.23544,12.9227],[80.23544,12.9227],[80.2336,12.9209],[80.2336,12.9191],[80.2336,12.9173],[80.2336,12.9173],[80.23175,12.9155],[80.23175,12.9137],[80.23175,12.9119],[80.23175,12.9119],[80.22991,12.9101],[80.22991,12.9083],[80.22991,12.9065],[80.22991,12.9047],[80.22991,12.9047],[80.22807,12.9047],[80.22622,12.9047],[80.22622,12.9047],[80.22622,12.9065],[80.22622,12.9065],[80.22807,12.9083],[80.22807,12.9101],[80.22622,12.9119],[80.22622,12.9119],[80.22622,12.9137],[80.22622,12.9155],[80.22622,12.9173],[80.22622,12.9191],[80.22622,12.9209],[80.22622,12.9209],[80.22807,12.9227],[80.22622,12.9245],[80.22622,12.9245],[80.22622,12.9263],[80.22622,12.92809],[80.22622,12.92809],[80.22807,12.92989],[80.22807,12.93169],[80.22807,12.93349],[80.22807,12.93529],[80.22807,12.93709],[80.22807,12.93709],[80.22991,12.93889],[80.22991,12.94069],[80.22991,12.94249],[80.22991,12.94249],[80.23175,12.94429],[80.23175,12.94609],[80.23175,12.94789],[80.22991,12.94969],[80.22991,12.94969],[80.22991,12.95149],[80.22991,12.95149],[80.23175,12.95329],[80.23175,12.95329],[80.2336,12.95509],[80.2336,12.95509],[80.23544,12.95689],[80.23544,12.95869],[80.23544,12.96049],[80.23544,12.96049],[80.23729,12.96229],[80.23729,12.96409],[80.23729,12.96409],[80.23913,12.96589],[80.23913,12.96769],[80.23913,12.96949],[80.23729,12.97129],[80.23544,12.97129],[80.2336,12.96949],[80.2336,12.96949],[80.23175,12.96769],[80.23175,12.96769],[80.22991,12.96589],[80.22991,12.96589],[80.22807,12.96409],[80.22807,12.96409],[80.22622,12.96229],[80.22622,12.96049],[80.22622,12.96049],[80.22438,12.95869],[80.22438,12.95689],[80.22438,12.95689],[80.22253,12.95509],[80.22253,12.95509],[80.22069,12.95329],[80.22253,12.95149],[80.22438,12.95149],[80.22438,12.95149],[80.22438,12.94969],[80.22438,12.94789],[80.22438,12.94789],[80.22253,12.94609],[80.22253,12.94609],[80.22069,12.94609],[80.21884,12.94609],[80.217,12.94429],[80.217,12.94249],[80.217,12.94249],[80.21516,12.94069],[80.21516,12.94069],[80.21331,12.93889],[80.21331,12.93889],[80.21147,12.93709],[80.21147,12.93529],[80.21147,12.93529],[80.20962,12.93349],[80.20962,12.93349],[80.20778,12.93169],[80.20778,12.92989],[80.20778,12.92809],[80.20778,12.9263],[80.20778,12.9263],[80.20593,12.9245],[80.20593,12.9245],[80.20409,12.9245],[80.20225,12.9245],[80.2004,12.9227],[80.2004,12.9209],[80.2004,12.9209],[80.19856,12.9191],[80.19856,12.9173],[80.19856,12.9173],[80.19671,12.9173],[80.19487,12.9173],[80.19487,12.9173],[80.19302,12.9191],[80.19302,12.9191],[80.19302,12.9191],[80.19487,12.9209],[80.19487,12.9227],[80.19302,12.9245],[80.19302,12.9245],[80.19302,12.9263],[80.19302,12.92809],[80.19302,12.92809],[80.19487,12.92989],[80.19487,12.92989],[80.19671,12.93169],[80.19671,12.93169],[80.19856,12.93349],[80.19856,12.93529],[80.19856,12.93709],[80.19856,12.93889],[80.19856,12.94069],[80.19856,12.94249],[80.19671,12.94429],[80.19487,12.94429],[80.19302,12.94429],[80.19302,12.94429],[80.19118,12.94609],[80.19118,12.94609],[80.19118,12.94789],[80.19118,12.94969],[80.19118,12.94969],[80.19302,12.95149],[80.19302,12.95149],[80.19487,12.95329],[80.19487,12.95329],[80.19671,12.95329],[80.19856,12.95329],[80.2004,12.95329],[80.20225,12.95509],[80.20225,12.95509],[80.20409,12.95689],[80.20409,12.95869],[80.20225,12.96049],[80.2004,12.95869],[80.2004,12.95869],[80.19856,12.95869],[80.19671,12.95869],[80.19671,12.95869],[80.19487,12.96049],[80.19302,12.96049],[80.19118,12.96049],[80.18934,12.95869],[80.18934,12.95689],[80.18934,12.95509],[80.18934,12.95329],[80.18934,12.95329],[80.18749,12.95149],[80.18749,12.94969],[80.18749,12.94789],[80.18749,12.94609],[80.18749,12.94609],[80.18565,12.94609],[80.1838,12.94609],[80.18196,12.94609],[80.18196,12.94609],[80.18011,12.94789],[80.18011,12.94789],[80.18011,12.94969],[80.18011,12.95149],[80.18011,12.95149],[80.18196,12.95149],[80.1838,12.95329],[80.1838,12.95509],[80.1838,12.95689],[80.1838,12.95689],[80.18565,12.95869],[80.1838,12.96049],[80.1838,12.96049],[80.1838,12.96229],[80.1838,12.96409],[80.1838,12.96589],[80.1838,12.96769],[80.1838,12.96769],[80.18565,12.96949],[80.18565,12.96949],[80.18749,12.96949],[80.18934,12.97129],[80.18934,12.97309],[80.18749,12.97489],[80.18565,12.97489],[80.1838,12.97489],[80.18196,12.97309],[80.18196,12.97309],[80.18011,12.97309],[80.18011,12.97309],[80.17827,12.97489],[80.17827,12.97489],[80.17643,12.97669],[80.17458,12.97669],[80.17274,12.97669],[80.17089,12.97489],[80.17089,12.97489],[80.16905,12.97309],[80.16905,12.97129],[80.16905,12.97129],[80.16721,12.97129],[80.16536,12.96949],[80.16536,12.96949],[80.16352,12.96949],[80.16167,12.96949],[80.15983,12.96769],[80.15983,12.96589],[80.15983,12.96589],[80.15798,12.96409],[80.15798,12.96409],[80.15614,12.96229],[80.15614,12.96229],[80.1543,12.96049],[80.15614,12.95869],[80.15798,12.95869],[80.15983,12.96049],[80.15983,12.96229],[80.15983,12.96229],[80.15983,12.96229],[80.16167,12.96049],[80.16167,12.96049],[80.16167,12.96049],[80.15983,12.95869],[80.16167,12.95689],[80.16167,12.95689],[80.16352,12.95509],[80.16352,12.95509],[80.16352,12.95329],[80.16352,12.95329],[80.16167,12.95149],[80.16167,12.95149],[80.15983,12.95149],[80.15798,12.95149],[80.15614,12.95149],[80.1543,12.95149],[80.15245,12.95149],[80.15245,12.95149],[80.15061,12.95329],[80.14876,12.95149],[80.14876,12.95149],[80.14692,12.94969],[80.14692,12.94969],[80.14507,12.94789],[80.14507,12.94609],[80.14507,12.94609],[80.14323,12.94609],[80.14139,12.94429],[80.14323,12.94249],[80.14323,12.94249],[80.14323,12.94249],[80.14139,12.94249],[80.13954,12.94069],[80.13954,12.94069],[80.1377,12.93889],[80.1377,12.93889],[80.13585,12.93889],[80.13401,12.93709],[80.13401,12.93529],[80.13401,12.93529],[80.13216,12.93349],[80.13216,12.93349],[80.13032,12.93169],[80.13032,12.93169],[80.12848,12.92989],[80.12848,12.92989],[80.12663,12.92989],[80.12479,12.92809],[80.12479,12.92809],[80.12294,12.9263],[80.12479,12.9245],[80.12663,12.9245],[80.12663,12.9245],[80.12663,12.9227],[80.12663,12.9209],[80.12663,12.9209],[80.12479,12.9209],[80.12294,12.9209],[80.1211,12.9209],[80.11925,12.9209],[80.11925,12.9209],[80.11741,12.9227],[80.11557,12.9227],[80.11557,12.9227],[80.11372,12.9245],[80.11372,12.9245],[80.11372,12.9263],[80.11372,12.9263],[80.11557,12.92809],[80.11557,12.92989],[80.11557,12.92989],[80.11741,12.93169],[80.11741,12.93169],[80.11925,12.93349],[80.11925,12.93349],[80.1211,12.93529],[80.1211,12.93709],[80.1211,12.93709],[80.12294,12.93889],[80.12294,12.93889],[80.12479,12.94069],[80.12479,12.94069],[80.12663,12.94249],[80.12663,12.94249],[80.12848,12.94429],[80.12848,12.94609],[80.12848,12.94609],[80.13032,12.94789],[80.13032,12.94789],[80.13216,12.94969],[80.13216,12.94969],[80.13401,12.95149],[80.13401,12.95329],[80.13401,12.95509],[80.13401,12.95509],[80.13585,12.95689],[80.13585,12.95869],[80.13585,12.95869],[80.1377,12.96049],[80.1377,12.96049],[80.13954,12.96229],[80.13954,12.96229],[80.14139,12.96409],[80.13954,12.96589],[80.13954,12.96589],[80.1377,12.96769],[80.13585,12.96769],[80.13585,12.96769],[80.13401,12.96949],[80.13216,12.96949],[80.13216,12.96949],[80.13032,12.97129],[80.13032,12.97129],[80.12848,12.97309],[80.12848,12.97309],[80.12663,12.97489],[80.12663,12.97489],[80.12663,12.97669],[80.12479,12.97849],[80.12479,12.97849],[80.12479,12.98029],[80.12294,12.98208],[80.12294,12.98208],[80.1211,12.98388],[80.1211,12.98388],[80.1211,12.98568],[80.1211,12.98748],[80.1211,12.98748],[80.12294,12.98748],[80.12479,12.98748],[80.12479,12.98748],[80.12663,12.98568],[80.12848,12.98568],[80.13032,12.98568],[80.13032,12.98568],[80.13032,12.98388],[80.13216,12.98208],[80.13216,12.98208],[80.13401,12.98029],[80.13585,12.98208],[80.13585,12.98208],[80.1377,12.98388],[80.1377,12.98388],[80.1377,12.98388],[80.13954,12.98208],[80.13954,12.98208],[80.13954,12.98208],[80.1377,12.98029],[80.13954,12.97849],[80.14139,12.98029],[80.14139,12.98029],[80.14323,12.98029],[80.14507,12.98029],[80.14692,12.98029],[80.14876,12.98208],[80.14876,12.98208],[80.15061,12.98208],[80.15245,12.98208],[80.1543,12.98388],[80.1543,12.98568],[80.1543,12.98568],[80.15614,12.98748],[80.15614,12.98748],[80.15798,12.98748],[80.15983,12.98928],[80.15983,12.98928],[80.16167,12.98928],[80.16352,12.98928],[80.16536,12.99108],[80.16536,12.99108],[80.16721,12.99288],[80.16721,12.99468],[80.16721,12.99468],[80.16905,12.99648],[80.16905,12.99648],[80.17089,12.99648],[80.17274,12.99648],[80.17458,12.99828],[80.17458,12.99828],[80.17643,12.99828],[80.17827,13.00008],[80.17827,13.00188],[80.17827,13.00188],[80.18011,13.00368],[80.18011,13.00368],[80.18196,13.00548],[80.18196,13.00548],[80.1838,13.00728],[80.18196,13.00908],[80.18196,13.00908],[80.18011,13.01088],[80.18011,13.01088],[80.17827,13.01268],[80.17827,13.01268],[80.17643,13.01448],[80.17643,13.01448],[80.17458,13.01628],[80.17274,13.01628],[80.17274,13.01628],[80.17089,13.01808],[80.17089,13.01808],[80.16905,13.01988],[80.16905,13.01988],[80.16721,13.02168],[80.16536,13.02168],[80.16536,13.02168],[80.16352,13.02348],[80.16352,13.02348],[80.16167,13.02528],[80.15983,13.02528],[80.15983,13.02528],[80.15798,13.02708],[80.15614,13.02528],[80.15614,13.02528],[80.1543,13.02348],[80.1543,13.02348],[80.15245,13.02348],[80.15061,13.02348],[80.14876,13.02348],[80.14692,13.02168],[80.14692,13.01988],[80.14692,13.01808],[80.14692,13.01808],[80.14507,13.01628],[80.14507,13.01628],[80.14323,13.01628],[80.14323,13.01628],[80.14139,13.01808],[80.13954,13.01808],[80.1377,13.01808],[80.1377,13.01808],[80.13585,13.01988],[80.13401,13.01988],[80.13216,13.01988],[80.13032,13.01988],[80.12848,13.01988],[80.12848,13.01988],[80.12848,13.01988],[80.13032,13.02168],[80.13032,13.02168],[80.13216,13.02168],[80.13401,13.02168],[80.13585,13.02168],[80.1377,13.02168],[80.13954,13.02168],[80.14139,13.02348],[80.14139,13.02348],[80.14323,13.02348],[80.14507,13.02348],[80.14692,13.02528],[80.14692,13.02708],[80.14692,13.02888],[80.14507,13.03068],[80.14323,13.03068],[80.14139,13.03068],[80.13954,13.03068],[80.1377,13.03068],[80.1377,13.03068],[80.13585,13.03248],[80.13401,13.03248],[80.13216,13.03248],[80.13216,13.03248],[80.13032,13.03427],[80.12848,13.03427],[80.12663,13.03427],[80.12663,13.03427],[80.12479,13.03607],[80.12294,13.03607],[80.1211,13.03607],[80.11925,13.03427],[80.11925,13.03427],[80.11741,13.03248],[80.11741,13.03068],[80.11741,13.02888],[80.11925,13.02708],[80.1211,13.02708],[80.1211,13.02708],[80.12294,13.02528],[80.12294,13.02528],[80.12294,13.02348],[80.12294,13.02168],[80.12294,13.01988],[80.12294,13.01988],[80.1211,13.01988],[80.11925,13.01808],[80.11925,13.01808],[80.11741,13.01808],[80.11741,13.01808],[80.11557,13.01988],[80.11372,13.01988],[80.11188,13.01988],[80.11003,13.01808],[80.11003,13.01808],[80.10819,13.01808],[80.10634,13.01628],[80.10634,13.01628],[80.1045,13.01448],[80.1045,13.01268],[80.1045,13.01088],[80.1045,13.00908],[80.1045,13.00908],[80.10266,13.00728],[80.10266,13.00548],[80.10266,13.00548],[80.10081,13.00368],[80.10081,13.00368],[80.09897,13.00368],[80.09897,13.00368],[80.09897,13.00548],[80.09712,13.00728],[80.09712,13.00728],[80.09712,13.00728],[80.09897,13.00908],[80.09897,13.01088],[80.09897,13.01268],[80.09897,13.01268],[80.10081,13.01448],[80.09897,13.01628],[80.09897,13.01628],[80.09897,13.01808],[80.09897,13.01988],[80.09897,13.01988],[80.10081,13.02168],[80.10081,13.02168],[80.10266,13.02348],[80.10266,13.02528],[80.10266,13.02528],[80.1045,13.02708],[80.1045,13.02708],[80.10634,13.02888],[80.1045,13.03068],[80.1045,13.03068],[80.1045,13.03248],[80.1045,13.03427],[80.1045,13.03427],[80.10634,13.03607],[80.10634,13.03787],[80.10634,13.03967],[80.1045,13.04147],[80.10266,13.04147],[80.10266,13.04147],[80.10081,13.04327],[80.09897,13.04327],[80.09712,13.04327],[80.09712,13.04327],[80.09528,13.04507],[80.09343,13.04507],[80.09343,13.04507],[80.09159,13.04687],[80.08975,13.04507],[80.08975,13.04507],[80.0879,13.04507],[80.08606,13.04507],[80.08421,13.04507],[80.08237,13.04327],[80.08237,13.04327],[80.08052,13.04327],[80.07868,13.04327],[80.07684,13.04327],[80.07499,13.04327],[80.07499,13.04327],[80.07315,13.04507],[80.0713,13.04327],[80.0713,13.04327],[80.06946,13.04327],[80.06946,13.04327],[80.06946,13.04507],[80.06946,13.04687],[80.06946,13.04687],[80.0713,13.04687],[80.07315,13.04867],[80.07315,13.04867],[80.07499,13.05047],[80.07499,13.05047],[80.07684,13.05047],[80.07868,13.05047],[80.08052,13.05047],[80.08237,13.05047],[80.08421,13.05227],[80.08421,13.05227],[80.08606,13.05227],[80.0879,13.05227],[80.08975,13.05407],[80.08975,13.05407],[80.09159,13.05587],[80.09159,13.05767],[80.09159,13.05767],[80.09343,13.05947],[80.09343,13.05947],[80.09528,13.06127],[80.09528,13.06127],[80.09712,13.06127],[80.09897,13.06127],[80.10081,13.06127],[80.10081,13.06127],[80.10266,13.05947],[80.10266,13.05947],[80.10266,13.05767],[80.1045,13.05587],[80.10634,13.05587],[80.10819,13.05767],[80.10819,13.05947],[80.10819,13.05947],[80.11003,13.06127],[80.11003,13.06307],[80.11003,13.06487],[80.11003,13.06667],[80.11003,13.06667],[80.11188,13.06847],[80.11188,13.06847],[80.11372,13.06847],[80.11557,13.07027],[80.11557,13.07207],[80.11557,13.07207],[80.11741,13.07387],[80.11741,13.07567],[80.11741,13.07567],[80.11925,13.07567],[80.1211,13.07747],[80.1211,13.07747],[80.12294,13.07747],[80.12479,13.07747],[80.12663,13.07747],[80.12848,13.07747],[80.13032,13.07747],[80.13032,13.07747],[80.13216,13.07567],[80.13401,13.07567],[80.13585,13.07567],[80.1377,13.07567],[80.13954,13.07567],[80.14139,13.07567],[80.14139,13.07567],[80.14323,13.07387],[80.14507,13.07387],[80.14692,13.07567],[80.14692,13.07747],[80.14692,13.07747],[80.14876,13.07927],[80.14876,13.07927],[80.15061,13.08107],[80.15061,13.08107],[80.15245,13.08287],[80.15245,13.08287],[80.1543,13.08467],[80.1543,13.08647],[80.1543,13.08826],[80.15245,13.09006],[80.15061,13.09006],[80.14876,13.09006],[80.14692,13.09006],[80.14507,13.08826],[80.14507,13.08826],[80.14323,13.08826],[80.14139,13.08826],[80.13954,13.08826],[80.13954,13.08826],[80.1377,13.09006],[80.13585,13.09006],[80.13585,13.09006],[80.13401,13.09186],[80.13401,13.09186],[80.13401,13.09366],[80.13216,13.09546],[80.13216,13.09546],[80.13032,13.09726],[80.13032,13.09726],[80.13032,13.09906],[80.12848,13.10086],[80.12848,13.10086],[80.12663,13.10266],[80.12663,13.10266],[80.12663,13.10446],[80.12663,13.10626],[80.12663,13.10806],[80.12663,13.10986],[80.12663,13.10986],[80.12848,13.11166],[80.12663,13.11346],[80.12663,13.11346],[80.12663,13.11526],[80.12663,13.11526],[80.12848,13.11706],[80.12848,13.11706],[80.13032,13.11886],[80.13032,13.11886],[80.13216,13.11886],[80.13401,13.11886],[80.13585,13.12066],[80.13401,13.12246],[80.13401,13.12246],[80.13216,13.12426],[80.13032,13.12426],[80.13032,13.12426],[80.12848,13.12606],[80.12663,13.12426],[80.12663,13.12426],[80.12479,13.12426],[80.12294,13.12246],[80.12294,13.12246],[80.1211,13.12066],[80.1211,13.12066],[80.11925,13.12066],[80.11741,13.12066],[80.11557,13.12066],[80.11372,13.11886],[80.11372,13.11886],[80.11188,13.11886],[80.11188,13.11886],[80.11003,13.12066],[80.11003,13.12066],[80.10819,13.12246],[80.10819,13.12246],[80.10819,13.12426],[80.10819,13.12426],[80.11003,13.12606],[80.11003,13.12606],[80.11188,13.12786],[80.11188,13.12786],[80.11372,13.12786],[80.11557,13.12966],[80.11557,13.12966],[80.11741,13.12966],[80.11925,13.13146],[80.11925,13.13146],[80.1211,13.13326],[80.1211,13.13326],[80.12294,13.13506],[80.12294,13.13506],[80.12479,13.13506],[80.12663,13.13506],[80.12848,13.13506],[80.13032,13.13686],[80.13032,13.13686],[80.13216,13.13686],[80.13401,13.13686],[80.13585,13.13866],[80.13401,13.14045],[80.13401,13.14045],[80.13401,13.14225],[80.13401,13.14225],[80.13585,13.14405],[80.13585,13.14405],[80.1377,13.14405],[80.13954,13.14405],[80.14139,13.14405],[80.14323,13.14405],[80.14507,13.14405],[80.14507,13.14405],[80.14507,13.14225],[80.14692,13.14045],[80.14692,13.14045],[80.14692,13.13866],[80.14876,13.13686],[80.15061,13.13866],[80.15061,13.13866],[80.15245,13.14045],[80.15245,13.14225],[80.15245,13.14225],[80.1543,13.14225],[80.15614,13.14225],[80.15798,13.14225],[80.15798,13.14225],[80.15983,13.14045],[80.16167,13.14045],[80.16352,13.14045],[80.16536,13.14045],[80.16721,13.14045],[80.16905,13.14225],[80.16905,13.14405],[80.16905,13.14405],[80.17089,13.14585],[80.17089,13.14765],[80.17089,13.14765],[80.17274,13.14945],[80.17274,13.14945],[80.17458,13.14945],[80.17643,13.15125],[80.17643,13.15125],[80.17827,13.15305],[80.17827,13.15485],[80.17827,13.15485],[80.18011,13.15665],[80.18011,13.15845],[80.18011,13.15845],[80.18196,13.16025],[80.18196,13.16025],[80.1838,13.16205],[80.1838,13.16205],[80.18565,13.16385],[80.18565,13.16565],[80.1838,13.16745],[80.1838,13.16745],[80.1838,13.16925],[80.18196,13.17105],[80.18196,13.17105],[80.18196,13.17285],[80.18196,13.17465],[80.18011,13.17645],[80.18011,13.17645],[80.18011,13.17825],[80.17827,13.18005],[80.17827,13.18005],[80.17643,13.18185],[80.17643,13.18185],[80.17643,13.18365],[80.17458,13.18545],[80.17274,13.18545],[80.17274,13.18545],[80.17089,13.18725],[80.16905,13.18725],[80.16721,13.18725],[80.16536,13.18725],[80.16536,13.18725],[80.16352,13.18905],[80.16167,13.18905],[80.15983,13.18905],[80.15983,13.18905],[80.15798,13.19085],[80.15614,13.19085],[80.15614,13.19085],[80.1543,13.19265],[80.15245,13.19265],[80.15061,13.19265],[80.15061,13.19265],[80.14876,13.19444],[80.14876,13.19444],[80.14692,13.19624],[80.14507,13.19624],[80.14323,13.19444],[80.14323,13.19444],[80.14323,13.19444],[80.14139,13.19624],[80.13954,13.19624],[80.13954,13.19624],[80.1377,13.19804],[80.13585,13.19804],[80.13585,13.19804],[80.13401,13.19984],[80.13216,13.19804],[80.13216,13.19804],[80.13032,13.19804],[80.12848,13.19804],[80.12848,13.19804],[80.12663,13.19984],[80.12663,13.19984],[80.12479,13.20164],[80.12479,13.20164],[80.12479,13.20344],[80.12479,13.20344],[80.12663,13.20524],[80.12663,13.20704],[80.12663,13.20704],[80.12848,13.20704],[80.13032,13.20704],[80.13216,13.20704],[80.13216,13.20704],[80.13401,13.20524],[80.13585,13.20704],[80.13585,13.20704],[80.1377,13.20704],[80.13954,13.20704],[80.14139,13.20704],[80.14323,13.20704],[80.14507,13.20704],[80.14507,13.20704],[80.14692,13.20524],[80.14692,13.20524],[80.14876,13.20344],[80.15061,13.20344],[80.15245,13.20344],[80.1543,13.20524],[80.1543,13.20524],[80.1543,13.20524],[80.15614,13.20344],[80.15798,13.20344],[80.15983,13.20344],[80.16167,13.20344],[80.16352,13.20344],[80.16536,13.20344],[80.16721,13.20524],[80.16536,13.20704],[80.16536,13.20704],[80.16536,13.20884],[80.16536,13.21064],[80.16536,13.21244],[80.16352,13.21424],[80.16352,13.21424],[80.16352,13.21604],[80.16352,13.21784],[80.16352,13.21964],[80.16352,13.22144],[80.16352,13.22324],[80.16352,13.22504],[80.16352,13.22504],[80.16536,13.22504],[80.16721,13.22684],[80.16721,13.22684],[80.16721,13.22684],[80.16905,13.22504],[80.17089,13.22504],[80.17089,13.22504],[80.17274,13.22324],[80.17274,13.22324],[80.17274,13.22144],[80.17274,13.21964],[80.17458,13.21784],[80.17458,13.21784],[80.17643,13.21604],[80.17643,13.21604],[80.17643,13.21424],[80.17827,13.21244],[80.17827,13.21244],[80.17827,13.21064],[80.18011,13.20884],[80.18011,13.20884],[80.18196,13.20704],[80.18196,13.20704],[80.1838,13.20524],[80.18565,13.20524],[80.18565,13.20524],[80.18749,13.20344],[80.18934,13.20344],[80.18934,13.20344],[80.19118,13.20164],[80.19302,13.20344],[80.19302,13.20344],[80.19487,13.20344],[80.19671,13.20344],[80.19671,13.20344],[80.19671,13.20164],[80.19671,13.19984],[80.19671,13.19804],[80.19856,13.19624],[80.19856,13.19624],[80.2004,13.19444],[80.2004,13.19444],[80.20225,13.19265],[80.20225,13.19265],[80.20409,13.19085],[80.20593,13.19085],[80.20593,13.19085],[80.20778,13.18905],[80.20778,13.18905],[80.20778,13.18725],[80.20778,13.18545],[80.20778,13.18365],[80.20962,13.18185],[80.21147,13.18185],[80.21331,13.18185],[80.21331,13.18185],[80.21516,13.18005],[80.21516,13.18005],[80.21516,13.17825],[80.217,13.17645],[80.217,13.17645],[80.217,13.17465],[80.21884,13.17285],[80.22069,13.17285],[80.22069,13.17285],[80.22069,13.17105],[80.22069,13.17105],[80.21884,13.17105],[80.217,13.16925],[80.217,13.16745],[80.21884,13.16565],[80.21884,13.16565],[80.22069,13.16385],[80.22253,13.16385],[80.22438,13.16565],[80.22438,13.16745],[80.22438,13.16745],[80.22622,13.16745],[80.22807,13.16745],[80.22991,13.16745],[80.22991,13.16745],[80.23175,13.16565],[80.2336,13.16745],[80.2336,13.16925],[80.23175,13.17105],[80.23175,13.17105],[80.23175,13.17285],[80.23175,13.17465],[80.23175,13.17645],[80.23175,13.17645],[80.2336,13.17825],[80.2336,13.17825],[80.23544,13.18005],[80.23544,13.18005],[80.23729,13.18005],[80.23913,13.18005],[80.24098,13.18005],[80.24098,13.18005],[80.24282,13.17825],[80.24466,13.18005],[80.24466,13.18005],[80.24651,13.18005],[80.24835,13.18185],[80.24835,13.18365],[80.24835,13.18365],[80.2502,13.18545],[80.2502,13.18545],[80.25204,13.18725],[80.25204,13.18725],[80.25389,13.18725],[80.25573,13.18725],[80.25757,13.18725],[80.25942,13.18725],[80.25942,13.18725],[80.26126,13.18545],[80.26311,13.18725],[80.26311,13.18905],[80.26311,13.19085],[80.26311,13.19085],[80.26495,13.19265],[80.26495,13.19444],[80.26495,13.19624],[80.26495,13.19624],[80.2668,13.19624],[80.26864,13.19804],[80.2668,13.19984],[80.2668,13.19984],[80.2668,13.20164],[80.26495,13.20344],[80.26495,13.20344],[80.26495,13.20344],[80.2668,13.20524],[80.2668,13.20704],[80.2668,13.20884],[80.2668,13.20884],[80.26864,13.21064],[80.26864,13.21244],[80.26864,13.21424],[80.26864,13.21604],[80.26864,13.21604],[80.27048,13.21604],[80.27233,13.21784],[80.27233,13.21784],[80.27233,13.21784],[80.27417,13.21604],[80.27417,13.21604],[80.27417,13.21424],[80.27417,13.21244],[80.27417,13.21064],[80.27417,13.20884],[80.27417,13.20704],[80.27602,13.20524],[80.27602,13.20524],[80.27602,13.20524],[80.27417,13.20344],[80.27602,13.20164],[80.27602,13.20164],[80.27602,13.20164],[80.27417,13.20164],[80.27233,13.19984],[80.27233,13.19984],[80.27048,13.19804],[80.27233,13.19624],[80.27417,13.19624],[80.27417,13.19624],[80.27417,13.19444],[80.27417,13.19265],[80.27602,13.19085],[80.27602,13.19085],[80.27602,13.18905],[80.27602,13.18725],[80.27786,13.18545],[80.27971,13.18545],[80.28155,13.18545],[80.28339,13.18545],[80.28339,13.18545],[80.28524,13.18365],[80.28708,13.18365],[80.28893,13.18365],[80.29077,13.18365],[80.29262,13.18545],[80.29262,13.18545],[80.29446,13.18725],[80.29446,13.18905],[80.29446,13.18905],[80.2963,13.19085],[80.2963,13.19085],[80.29815,13.19265],[80.29815,13.19265],[80.29999,13.19265],[80.30184,13.19444],[80.30184,13.19444],[80.30368,13.19624],[80.30368,13.19624],[80.30553,13.19804],[80.30553,13.19984],[80.30553,13.19984],[80.30737,13.20164],[80.30737,13.20344],[80.30737,13.20344],[80.30921,13.20524],[80.30921,13.20704],[80.30921,13.20704],[80.31106,13.20884],[80.31106,13.20884],[80.3129,13.21064],[80.3129,13.21064],[80.31475,13.21244],[80.31475,13.21244],[80.31659,13.21424],[80.31659,13.21424],[80.31844,13.21604],[80.31844,13.21784],[80.31844,13.21784],[80.32028,13.21784],[80.32212,13.21964],[80.32212,13.21964],[80.32397,13.22144],[80.32397,13.22144],[80.32581,13.22324],[80.32397,13.22504],[80.32212,13.22504],[80.32212,13.22504],[80.32212,13.22684],[80.32212,13.22684],[80.32397,13.22684],[80.32581,13.22864],[80.32581,13.22864],[80.32766,13.22864],[80.32766,13.22864]],[[80.2004,12.98208],[80.19856,12.98029],[80.19856,12.97849],[80.19856,12.97849],[80.19671,12.97669],[80.19671,12.97669],[80.19487,12.97669],[80.19302,12.97489],[80.19302,12.97309],[80.19302,12.97129],[80.19487,12.96949],[80.19671,12.96949],[80.19856,12.96949],[80.2004,12.97129],[80.2004,12.97129],[80.20225,12.97129],[80.20409,12.97129],[80.20593,12.97309],[80.20593,12.97489],[80.20409,12.97669],[80.20409,12.97669],[80.20225,12.97849],[80.20225,12.97849],[80.20225,12.98029],[80.2004,12.98208]],[[80.13585,13.04867],[80.13401,13.04867],[80.13216,13.04687],[80.13401,13.04507],[80.13401,13.04507],[80.13585,13.04327],[80.1377,13.04507],[80.1377,13.04687],[80.13585,13.04867]],[[80.11557,13.06667],[80.11372,13.06487],[80.11557,13.06307],[80.11557,13.06307],[80.11741,13.06127],[80.11925,13.06307],[80.11741,13.06487],[80.11741,13.06487],[80.11557,13.06667]],[[80.13585,13.11346],[80.13401,13.11166],[80.13585,13.10986],[80.13585,13.10986],[80.1377,13.10806],[80.13954,13.10986],[80.1377,13.11166],[80.1377,13.11166],[80.13585,13.11346]],[[80.16721,13.11886],[80.16536,13.11886],[80.16352,13.11886],[80.16167,13.11706],[80.16167,13.11526],[80.16352,13.11346],[80.16536,13.11346],[80.16721,13.11346],[80.16905,13.11526],[80.16905,13.11706],[80.16721,13.11886]],[[80.1838,13.12966],[80.18196,13.12786],[80.18196,13.12606],[80.18196,13.12606],[80.18011,13.12426],[80.18011,13.12426],[80.17827,13.12426],[80.17643,13.12246],[80.17643,13.12246],[80.17458,13.12246],[80.17274,13.12246],[80.17089,13.12246],[80.16905,13.12246],[80.16721,13.12066],[80.16905,13.11886],[80.17089,13.11886],[80.17274,13.11886],[80.17274,13.11886],[80.17274,13.11706],[80.17274,13.11526],[80.17458,13.11346],[80.17643,13.11346],[80.17827,13.11526],[80.17827,13.11526],[80.18011,13.11706],[80.18011,13.11706],[80.18196,13.11886],[80.18196,13.11886],[80.1838,13.12066],[80.1838,13.12246],[80.1838,13.12426],[80.1838,13.12426],[80.18565,13.12606],[80.18565,13.12786],[80.1838,13.12966]]],[[[80.16536,13.23044],[80.16536,13.22864],[80.16536,13.22864],[80.16352,13.22864],[80.16352,13.22864],[80.16352,13.23044],[80.16352,13.23044],[80.16536,13.23044],[80.16536,13.23044]]]]}}]}